{
"type": "FeatureCollection",
"name": "Okayama-Prefectural-Assembly-election",
"crs": { "type": "name", "properties": { "name": "urn:ogc:def:crs:OGC:1.3:CRS84" } },
"features": [
{ "type": "Feature", "properties": { "name": "岡山市北区・加賀郡", "id": "33101" }, "geometry": { "type": "MultiPolygon", "coordinates": [ [ [ [ 133.854014449207511, 34.944651667440553 ], [ 133.860708612212761, 34.943713333703442 ], [ 133.863887497110341, 34.937124721428802 ], [ 133.874876109045204, 34.939823054490432 ], [ 133.882938053648331, 34.948340829465735 ], [ 133.88809861176162, 34.944038333402432 ], [ 133.910130271594767, 34.943842225438402 ], [ 133.906335279149857, 34.938182495026183 ], [ 133.908581659715878, 34.926577225158894 ], [ 133.900536108854453, 34.922584720908219 ], [ 133.906273060453486, 34.918221108717262 ], [ 133.894172775853008, 34.909590000278342 ], [ 133.902566394023893, 34.901487225555059 ], [ 133.909230557444289, 34.906655279517565 ], [ 133.922231945647809, 34.900830829279414 ], [ 133.930555836682629, 34.887838892051263 ], [ 133.938498612121293, 34.883939441552059 ], [ 133.927843060508849, 34.874663333046442 ], [ 133.93746221810693, 34.870972775273401 ], [ 133.955354721243452, 34.872730829364343 ], [ 133.961109441647523, 34.868014162223858 ], [ 133.968289727788715, 34.853152775480282 ], [ 133.977566667267979, 34.847132225371979 ], [ 133.981931387423629, 34.855044162158435 ], [ 133.993985278697664, 34.850072775538194 ], [ 133.992816938850751, 34.841292775341344 ], [ 133.987742502514493, 34.835759441045411 ], [ 133.991203605462033, 34.827081108306572 ], [ 133.987086666516461, 34.818256387522297 ], [ 133.985550829507247, 34.807003333537068 ], [ 133.973670557750097, 34.802568333162071 ], [ 133.961704162417277, 34.786012225284026 ], [ 133.970290271478916, 34.784224441404888 ], [ 133.980683332569811, 34.778641946568655 ], [ 133.976621388066633, 34.769270829185473 ], [ 133.985851659926197, 34.761328613125045 ], [ 133.971421945966085, 34.749433333481591 ], [ 133.984093890920349, 34.739499441046405 ], [ 133.986529999659865, 34.733476666914726 ], [ 133.993963332541853, 34.726539721131303 ], [ 133.993589169604547, 34.719641386840578 ], [ 133.985937393196195, 34.713101640128627 ], [ 133.958189999468914, 34.713151613656123 ], [ 133.948474812262816, 34.695945134960084 ], [ 133.939408690059054, 34.690058586534576 ], [ 133.934038637573167, 34.681785225707642 ], [ 133.932671776881079, 34.670466162383548 ], [ 133.938781698916387, 34.663308612902199 ], [ 133.932399921719025, 34.656408720985723 ], [ 133.930879000865275, 34.646326198495331 ], [ 133.938643138570001, 34.63594422514592 ], [ 133.926882723958556, 34.635006054186078 ], [ 133.924518028584203, 34.628259892380186 ], [ 133.915719143523688, 34.630048387623049 ], [ 133.91770649775674, 34.637815946348894 ], [ 133.909584253610433, 34.641058198377209 ], [ 133.904420117094787, 34.636027360274511 ], [ 133.897466083293125, 34.636394585841515 ], [ 133.891634163286085, 34.631235360523533 ], [ 133.88353114124925, 34.629768801888758 ], [ 133.872783138431146, 34.634273892726014 ], [ 133.867999300027691, 34.632981531872247 ], [ 133.859853256222891, 34.636608494986092 ], [ 133.852161919537025, 34.634451586171792 ], [ 133.843463060671752, 34.621346387425888 ], [ 133.83604416280798, 34.619919441229285 ], [ 133.830272776167703, 34.627878613107555 ], [ 133.837530310475472, 34.635412107982461 ], [ 133.831821114652826, 34.65124277503412 ], [ 133.837672503183512, 34.655024162535142 ], [ 133.835031387688446, 34.661807775708326 ], [ 133.824933605501542, 34.669350559680652 ], [ 133.813161388187609, 34.667760279513345 ], [ 133.801276666584954, 34.662598892225162 ], [ 133.797168884536404, 34.666628613120054 ], [ 133.795636938893722, 34.676879721621901 ], [ 133.804158611530738, 34.684658613604199 ], [ 133.791668612016906, 34.698513613112823 ], [ 133.799751115121921, 34.711025279093406 ], [ 133.796168611792041, 34.723255000417964 ], [ 133.790773332423441, 34.73132444087031 ], [ 133.77260805411845, 34.742146108056488 ], [ 133.768202502943268, 34.741674721211439 ], [ 133.756229999415041, 34.74941777521019 ], [ 133.74940194624287, 34.747868612946206 ], [ 133.739834994289595, 34.761515000317047 ], [ 133.740014162623538, 34.768131666942907 ], [ 133.719836394034473, 34.7753116670998 ], [ 133.719034162796447, 34.769704162117421 ], [ 133.691628327085709, 34.755689720903945 ], [ 133.689003606231495, 34.745268054177416 ], [ 133.679884720803329, 34.751413613647401 ], [ 133.674394721239423, 34.766280559100551 ], [ 133.666464163090723, 34.773385000017811 ], [ 133.661316939225458, 34.781600000239848 ], [ 133.660614994086814, 34.796221387606977 ], [ 133.656507223729477, 34.804628333730648 ], [ 133.647744994136247, 34.814351946685065 ], [ 133.648492775920886, 34.82366249562773 ], [ 133.641389728053582, 34.829448333473863 ], [ 133.640503606256516, 34.836301667488044 ], [ 133.647785279267282, 34.847500558903732 ], [ 133.654469170216089, 34.850959999904148 ], [ 133.664571659454623, 34.864690279632725 ], [ 133.663306109189648, 34.874160000483698 ], [ 133.681360271759218, 34.881536667083594 ], [ 133.693741946133969, 34.891410000071517 ], [ 133.704697782276867, 34.892807774958897 ], [ 133.711571659504557, 34.90510833318308 ], [ 133.717520271943044, 34.908718612973644 ], [ 133.712005278420975, 34.919867494889047 ], [ 133.720335551044855, 34.933485829707308 ], [ 133.718913332584293, 34.945539162502428 ], [ 133.714077223784898, 34.952523613174264 ], [ 133.716929441640445, 34.955358054130954 ], [ 133.723847497164343, 34.948747225004468 ], [ 133.733762775431842, 34.950257225390715 ], [ 133.742224993888385, 34.945639721096313 ], [ 133.750106666689362, 34.945591387032948 ], [ 133.755412503084585, 34.952061387722893 ], [ 133.761893332511363, 34.952487225704942 ], [ 133.766486394131903, 34.937184440909277 ], [ 133.775104162926823, 34.933454441569268 ], [ 133.792608884692299, 34.92892333334521 ], [ 133.79808277559971, 34.933128333006209 ], [ 133.798505278895618, 34.939378613132533 ], [ 133.806859999589392, 34.940096387238555 ], [ 133.81131805408495, 34.946279441243291 ], [ 133.82234944227298, 34.952990559167006 ], [ 133.831374720866734, 34.951558333050684 ], [ 133.835567223548537, 34.944991666931912 ], [ 133.844171114905066, 34.944968613710614 ], [ 133.850240830050325, 34.934380279226559 ], [ 133.854014449207511, 34.944651667440553 ] ] ] ] } },
{ "type": "Feature", "properties": { "name": "岡山市中区", "id": "33102" }, "geometry": { "type": "MultiPolygon", "coordinates": [ [ [ [ 133.938643138570001, 34.63594422514592 ], [ 133.945362580618621, 34.630843225534477 ], [ 133.970885459896067, 34.601798324133426 ], [ 133.977382308946517, 34.600337054411568 ], [ 133.982689921502697, 34.607491613647085 ], [ 133.995796795685692, 34.613535865387917 ], [ 133.988791166878968, 34.618149775092093 ], [ 133.98576639430371, 34.626153775476382 ], [ 133.986409247688698, 34.645125586476695 ], [ 133.993019727878163, 34.663935198450702 ], [ 133.986903087007931, 34.669167495483578 ], [ 134.00534530524169, 34.674322135158491 ], [ 134.003869169726499, 34.682137252732105 ], [ 133.989074993815962, 34.683021081257948 ], [ 133.989099467966184, 34.697342747969515 ], [ 133.983891970637956, 34.707665414627229 ], [ 133.985937393196195, 34.713101640128627 ], [ 133.958189999468914, 34.713151613656123 ], [ 133.948474812262816, 34.695945134960084 ], [ 133.939408690059054, 34.690058586534576 ], [ 133.934038637573167, 34.681785225707642 ], [ 133.932671776881079, 34.670466162383548 ], [ 133.938781698916387, 34.663308612902199 ], [ 133.932399921719025, 34.656408720985723 ], [ 133.930879000865275, 34.646326198495331 ], [ 133.938643138570001, 34.63594422514592 ] ] ] ] } },
{ "type": "Feature", "properties": { "name": "岡山市東区", "id": "33103" }, "geometry": { "type": "MultiPolygon", "coordinates": [ [ [ [ 133.995796795685692, 34.613535865387917 ], [ 134.018982502440622, 34.609742162570797 ], [ 134.028973722159662, 34.606385532066724 ], [ 134.032478689539971, 34.60910757755272 ], [ 134.042151245283776, 34.608333333216819 ], [ 134.047434033853619, 34.597617279713745 ], [ 134.053206640873896, 34.596034865017032 ], [ 134.05437975342295, 34.586433829657551 ], [ 134.068973554086369, 34.583812559502064 ], [ 134.079750078003713, 34.586468613635645 ], [ 134.084489363993043, 34.581082332883398 ], [ 134.096677418827881, 34.582818224981168 ], [ 134.103524060087352, 34.589577135576405 ], [ 134.112186938876221, 34.588467775067841 ], [ 134.112867497237289, 34.600788892693288 ], [ 134.109651115106885, 34.605630279613763 ], [ 134.116340271586296, 34.627436946158184 ], [ 134.101294720774831, 34.639512494905773 ], [ 134.086308326468156, 34.632518613043601 ], [ 134.080003605881757, 34.632471946323335 ], [ 134.073073890647606, 34.637856108272842 ], [ 134.077309754141879, 34.650097468623358 ], [ 134.066836666878771, 34.647698333711162 ], [ 134.058213890658635, 34.651790279597776 ], [ 134.051930000169477, 34.659212225264014 ], [ 134.060198885070577, 34.670144721301881 ], [ 134.072541660169577, 34.676618892148213 ], [ 134.07773360552153, 34.681976945879398 ], [ 134.08415972828891, 34.698984441478842 ], [ 134.083389441869258, 34.706120559216458 ], [ 134.092990272183329, 34.714336387714184 ], [ 134.102298053912136, 34.726682225004708 ], [ 134.106202217758209, 34.742067495618471 ], [ 134.119733891206124, 34.747612775609184 ], [ 134.122523891264677, 34.752911108061255 ], [ 134.119343606122584, 34.757211666984915 ], [ 134.109072502993627, 34.76083944128726 ], [ 134.090217781925162, 34.762642775343863 ], [ 134.092910272091444, 34.770141387315221 ], [ 134.087045278616756, 34.781955000423011 ], [ 134.081042217624258, 34.782884721352843 ], [ 134.06455250309557, 34.779838333572286 ], [ 134.0582466664506, 34.767811946264374 ], [ 134.048876393530804, 34.766552225404951 ], [ 134.051218612149341, 34.76147472148125 ], [ 134.045313606038121, 34.749206667453791 ], [ 134.035470271735676, 34.744320279357453 ], [ 134.028703890472229, 34.73782055967115 ], [ 134.000489727918648, 34.726227775091786 ], [ 133.993589169604547, 34.719641386840578 ], [ 133.985937393196195, 34.713101640128627 ], [ 133.983891970637956, 34.707665414627229 ], [ 133.989099467966184, 34.697342747969515 ], [ 133.989074993815962, 34.683021081257948 ], [ 134.003869169726499, 34.682137252732105 ], [ 134.00534530524169, 34.674322135158491 ], [ 133.986903087007931, 34.669167495483578 ], [ 133.993019727878163, 34.663935198450702 ], [ 133.986409247688698, 34.645125586476695 ], [ 133.98576639430371, 34.626153775476382 ], [ 133.988791166878968, 34.618149775092093 ], [ 133.995796795685692, 34.613535865387917 ] ] ] ] } },
{ "type": "Feature", "properties": { "name": "岡山市南区", "id": "33104" }, "geometry": { "type": "MultiPolygon", "coordinates": [ [ [ [ 133.938643138570001, 34.63594422514592 ], [ 133.926882723958556, 34.635006054186078 ], [ 133.924518028584203, 34.628259892380186 ], [ 133.915719143523688, 34.630048387623049 ], [ 133.91770649775674, 34.637815946348894 ], [ 133.909584253610433, 34.641058198377209 ], [ 133.904420117094787, 34.636027360274511 ], [ 133.897466083293125, 34.636394585841515 ], [ 133.891634163286085, 34.631235360523533 ], [ 133.88353114124925, 34.629768801888758 ], [ 133.872783138431146, 34.634273892726014 ], [ 133.867999300027691, 34.632981531872247 ], [ 133.859853256222891, 34.636608494986092 ], [ 133.852161919537025, 34.634451586171792 ], [ 133.843463060671752, 34.621346387425888 ], [ 133.83604416280798, 34.619919441229285 ], [ 133.834355279172883, 34.611539999971058 ], [ 133.838286393901967, 34.599224441055185 ], [ 133.843601114699709, 34.590030559362901 ], [ 133.842893605455629, 34.579653333534566 ], [ 133.833056667131586, 34.568467225082429 ], [ 133.833172217423908, 34.554855559636394 ], [ 133.819275550526299, 34.550673891986605 ], [ 133.828276393640749, 34.534532775367325 ], [ 133.838408611768045, 34.535456946580894 ], [ 133.849948884933156, 34.526965278924536 ], [ 133.853989727743851, 34.519903613361123 ], [ 133.866491114473433, 34.518520559476315 ], [ 133.875243332813625, 34.524119440859579 ], [ 133.886582775674583, 34.524794162620537 ], [ 133.884770272130368, 34.537899162616327 ], [ 133.893304720536435, 34.542894161836159 ], [ 133.902216394071388, 34.536948613387835 ], [ 133.919711114476399, 34.544935279339711 ], [ 133.938752775820035, 34.576438333662225 ], [ 133.96172333326524, 34.566260559477314 ], [ 133.966080830066289, 34.558581667609928 ], [ 133.977112218254319, 34.559805278890565 ], [ 133.982516108631557, 34.566990829663098 ], [ 133.982243332563826, 34.572135829504987 ], [ 133.987186109051777, 34.577574440907767 ], [ 134.010163333171363, 34.574964441056181 ], [ 134.014370557755115, 34.577713613692367 ], [ 134.023067496567819, 34.575272775418284 ], [ 134.028885836812037, 34.578440828881185 ], [ 134.034178404609747, 34.573767622377943 ], [ 134.041139221997582, 34.576421802324376 ], [ 134.040721387981762, 34.587482054253428 ], [ 134.02605955900151, 34.598960721160381 ], [ 134.004536912748335, 34.594902748063419 ], [ 133.973849948216639, 34.594472972849474 ], [ 133.960442697772351, 34.587584027480943 ], [ 133.948087082153165, 34.593642305947697 ], [ 133.946051555734812, 34.598990865536052 ], [ 133.952354253745852, 34.60247327971814 ], [ 133.957185577252631, 34.596968081611749 ], [ 133.970885459896067, 34.601798324133426 ], [ 133.945362580618621, 34.630843225534477 ], [ 133.938643138570001, 34.63594422514592 ] ] ] ] } },
{ "type": "Feature", "properties": { "name": "倉敷市・都窪郡", "id": "33423" }, "geometry": { "type": "MultiPolygon", "coordinates": [ [ [ [ 133.83604416280798, 34.619919441229285 ], [ 133.834355279172883, 34.611539999971058 ], [ 133.838286393901967, 34.599224441055185 ], [ 133.843601114699709, 34.590030559362901 ], [ 133.842893605455629, 34.579653333534566 ], [ 133.833056667131586, 34.568467225082429 ], [ 133.833172217423908, 34.554855559636394 ], [ 133.819275550526299, 34.550673891986605 ], [ 133.828276393640749, 34.534532775367325 ], [ 133.838408611768045, 34.535456946580894 ], [ 133.849948884933156, 34.526965278924536 ], [ 133.853989727743851, 34.519903613361123 ], [ 133.866491114473433, 34.518520559476315 ], [ 133.866433605526481, 34.51069972131512 ], [ 133.870414994156704, 34.49306472106008 ], [ 133.864957223597003, 34.492313613582439 ], [ 133.861603890906849, 34.48130582900086 ], [ 133.863576393735684, 34.476361386968506 ], [ 133.876446393686138, 34.473323333205315 ], [ 133.880998326611575, 34.463377775663844 ], [ 133.880141140501337, 34.45684145896621 ], [ 133.867143995299216, 34.467276198237982 ], [ 133.829737470907617, 34.47252794670743 ], [ 133.817079442062663, 34.466827081304814 ], [ 133.814764305628273, 34.460098640639785 ], [ 133.808956589075365, 34.461126495591373 ], [ 133.811212166108589, 34.445386161841952 ], [ 133.814405719848196, 34.437991135582479 ], [ 133.807132113756097, 34.435894802403254 ], [ 133.791676977510519, 34.439364694425137 ], [ 133.785172555269241, 34.43608041437966 ], [ 133.780578248987013, 34.445378360223174 ], [ 133.771305331276039, 34.455302333136217 ], [ 133.767493748138008, 34.462505694082552 ], [ 133.766632944055232, 34.472319000021912 ], [ 133.759620557742664, 34.470201387084387 ], [ 133.757124694449203, 34.481701332850264 ], [ 133.759577807569826, 34.485846613030844 ], [ 133.748328559515471, 34.489466467903242 ], [ 133.742883696025842, 34.501215721028757 ], [ 133.735050310523434, 34.498593467914247 ], [ 133.721689532545952, 34.500870224880998 ], [ 133.719045965498935, 34.496405919197855 ], [ 133.737176666669939, 34.49057527892603 ], [ 133.743399078604625, 34.470601532334911 ], [ 133.719376588658747, 34.473118225725614 ], [ 133.704030051845507, 34.477826694646296 ], [ 133.70533411197971, 34.523063495583926 ], [ 133.690826277510723, 34.522822351370451 ], [ 133.690467003749291, 34.512377387706351 ], [ 133.684070804124417, 34.507072973139259 ], [ 133.670194994303642, 34.507345892199226 ], [ 133.669821309805684, 34.517783225115807 ], [ 133.658593695842455, 34.520345333370472 ], [ 133.648031439899114, 34.512122532428975 ], [ 133.647168418088086, 34.503757054044854 ], [ 133.638146497562843, 34.501374892037688 ], [ 133.625344228253539, 34.500993586684729 ], [ 133.619403696223685, 34.491941440844869 ], [ 133.611554059971922, 34.495375225086605 ], [ 133.603739402851261, 34.495143396050935 ], [ 133.603221659551991, 34.501046107991556 ], [ 133.607598327201117, 34.506069441251782 ], [ 133.62300082972456, 34.512833054401995 ], [ 133.623208054208362, 34.518765559083363 ], [ 133.629343332628764, 34.520554162244821 ], [ 133.640793606140051, 34.539426108028522 ], [ 133.648957223597108, 34.54518472159765 ], [ 133.642730557868958, 34.548118613183476 ], [ 133.647861945572345, 34.557307224848614 ], [ 133.639679999932127, 34.560616946714788 ], [ 133.636713060959096, 34.569437495544037 ], [ 133.62327527853131, 34.580483613727836 ], [ 133.632304993480716, 34.583708891951858 ], [ 133.649377224079672, 34.596251107902333 ], [ 133.63876138742819, 34.606029162216089 ], [ 133.633398053777228, 34.623482494921234 ], [ 133.63388221818991, 34.637678332988742 ], [ 133.632075551245748, 34.641831946287368 ], [ 133.645462503092062, 34.646595829633895 ], [ 133.649472217668745, 34.645185829362561 ], [ 133.658864162451209, 34.649989162369991 ], [ 133.666560000243862, 34.649400279099666 ], [ 133.668541387475102, 34.654482225674201 ], [ 133.678856667101513, 34.660400829534694 ], [ 133.681695836693621, 34.657685559540994 ], [ 133.693189442239031, 34.664396386983697 ], [ 133.696697223598107, 34.659346946404526 ], [ 133.710738053618343, 34.655665829714337 ], [ 133.716766667048091, 34.656497494863572 ], [ 133.722958326665548, 34.648044721087047 ], [ 133.727239728230984, 34.64684916235899 ], [ 133.72630333253278, 34.630821108507405 ], [ 133.731122217516372, 34.622158054350791 ], [ 133.739056667031605, 34.6243930539963 ], [ 133.74589944210561, 34.622298054511646 ], [ 133.757196938787729, 34.631411107836414 ], [ 133.751308053923594, 34.634219441474102 ], [ 133.762593060821132, 34.643450279007197 ], [ 133.7707877822304, 34.64023833323256 ], [ 133.780492503126538, 34.644383892202939 ], [ 133.793243333013493, 34.638946946344561 ], [ 133.798874162812467, 34.640528333116151 ], [ 133.798773332623227, 34.653698891890429 ], [ 133.801276666584954, 34.662598892225162 ], [ 133.813161388187609, 34.667760279513345 ], [ 133.824933605501542, 34.669350559680652 ], [ 133.835031387688446, 34.661807775708326 ], [ 133.837672503183512, 34.655024162535142 ], [ 133.831821114652826, 34.65124277503412 ], [ 133.837530310475472, 34.635412107982461 ], [ 133.830272776167703, 34.627878613107555 ], [ 133.83604416280798, 34.619919441229285 ] ] ], [ [ [ 133.764374993711044, 34.427291414667081 ], [ 133.774963748178493, 34.426499252238727 ], [ 133.770051803148249, 34.418779801846426 ], [ 133.76397466859612, 34.419770694661906 ], [ 133.761165330415679, 34.431292802420955 ], [ 133.764374993711044, 34.427291414667081 ] ] ], [ [ [ 133.683540026051446, 34.490525054487705 ], [ 133.669057781791253, 34.490712000158737 ], [ 133.669193021840556, 34.502028027371637 ], [ 133.684416329050464, 34.504266721432089 ], [ 133.683540026051446, 34.490525054487705 ] ] ] ] } },
{ "type": "Feature", "properties": { "name": "津山市・苫田郡・勝田郡・久米郡", "id": "33203" }, "geometry": { "type": "MultiPolygon", "coordinates": [ [ [ [ 133.828823605924754, 35.077480559680112 ], [ 133.835442502869228, 35.08232444131994 ], [ 133.832031659433596, 35.088252505149057 ], [ 133.836547782254456, 35.098698613650129 ], [ 133.845601387693932, 35.101507775563448 ], [ 133.843764162686057, 35.116693054041264 ], [ 133.8346974972917, 35.120906667408804 ], [ 133.833564993629579, 35.126254440989726 ], [ 133.821563605675919, 35.127248613632673 ], [ 133.816845836865923, 35.132267505141328 ], [ 133.802566939212966, 35.13160194657263 ], [ 133.792701659653972, 35.137583333004443 ], [ 133.782001945933075, 35.148014721402319 ], [ 133.780956394122313, 35.153024721313898 ], [ 133.770031387638483, 35.155747225454149 ], [ 133.770486939220973, 35.171121387641961 ], [ 133.779250272282297, 35.176208613236952 ], [ 133.777338884681853, 35.180621667456023 ], [ 133.779751388016166, 35.18947777547902 ], [ 133.778489999813701, 35.197299441016469 ], [ 133.77253555077516, 35.205858332995717 ], [ 133.781349169428722, 35.212737505431562 ], [ 133.778557781716358, 35.222436387029688 ], [ 133.800047224100126, 35.214446108501136 ], [ 133.808112502490076, 35.219745279121412 ], [ 133.81657055798496, 35.219002775457795 ], [ 133.810284448868288, 35.229158613379354 ], [ 133.81432444901418, 35.230906108530121 ], [ 133.820580557646736, 35.242171386999985 ], [ 133.81814610905576, 35.252634171629779 ], [ 133.832075550846071, 35.248832505315931 ], [ 133.843729441660457, 35.253485000432477 ], [ 133.85555666690675, 35.268116945840404 ], [ 133.865943332918505, 35.272258892234163 ], [ 133.863463061171387, 35.277095278924037 ], [ 133.865128611896012, 35.285863613115282 ], [ 133.862008611907982, 35.292361107878889 ], [ 133.881377782059076, 35.293945278951526 ], [ 133.906837496553294, 35.306641386890533 ], [ 133.925221659951717, 35.306898892469974 ], [ 133.932019441943794, 35.317921108472433 ], [ 133.927823332980552, 35.322096667027608 ], [ 133.931535278430374, 35.333206108275306 ], [ 133.937126109082783, 35.335566108289299 ], [ 133.945321388071648, 35.332615559460578 ], [ 133.954071115289821, 35.34069750498594 ], [ 133.96963277623172, 35.347834441106613 ], [ 133.979779999547418, 35.343409720881937 ], [ 133.997667782142457, 35.352900279024709 ], [ 134.015720557957479, 35.34869527936371 ], [ 134.010821660291413, 35.340396107994025 ], [ 134.015364720505545, 35.33386417099473 ], [ 134.004160558163335, 35.325283332859556 ], [ 133.999468326502097, 35.314650559275947 ], [ 134.007835550470304, 35.308397775437015 ], [ 134.030141945994046, 35.305421108497399 ], [ 134.044136109294072, 35.302755559321668 ], [ 134.054656108792415, 35.298189171593037 ], [ 134.062198612176303, 35.303042774904213 ], [ 134.070660558138343, 35.299259171473636 ], [ 134.081679999732273, 35.30225694640103 ], [ 134.086297496832117, 35.307325559626918 ], [ 134.097914448892766, 35.303298613140555 ], [ 134.102792775466241, 35.296393613074827 ], [ 134.122302775852518, 35.281073892246354 ], [ 134.13568416269402, 35.282335279549557 ], [ 134.141297497081837, 35.274939720891439 ], [ 134.137601387793893, 35.269564170849833 ], [ 134.150578884607853, 35.257956387377419 ], [ 134.142762775981396, 35.249426387018218 ], [ 134.145419727638341, 35.242836946467946 ], [ 134.137475278561283, 35.239245559634924 ], [ 134.144461946062052, 35.231301107859906 ], [ 134.158246393756144, 35.234563054141688 ], [ 134.16418416306874, 35.227975559724371 ], [ 134.162163890950865, 35.216453333254776 ], [ 134.154343605872782, 35.205553054529901 ], [ 134.153976667189454, 35.19464083820418 ], [ 134.164951388196073, 35.187980558955701 ], [ 134.168893605955191, 35.18016694594786 ], [ 134.167534448855804, 35.171825838291852 ], [ 134.177598326601583, 35.169171387649499 ], [ 134.18993666714357, 35.175865279059451 ], [ 134.192850557807105, 35.188561667586953 ], [ 134.212643605418066, 35.190723332915525 ], [ 134.216520271593367, 35.189488613208994 ], [ 134.222021387676932, 35.174169171170377 ], [ 134.221668884911196, 35.165164171389449 ], [ 134.228596394108422, 35.155758892359074 ], [ 134.228626667087042, 35.148881387266272 ], [ 134.223596667152492, 35.136871108614798 ], [ 134.231317497104897, 35.13050055945331 ], [ 134.225711114476439, 35.116567774882981 ], [ 134.23077250254903, 35.110006946263638 ], [ 134.222204163191691, 35.106888054240358 ], [ 134.214983890494182, 35.100109171501117 ], [ 134.198952502855832, 35.100166108479186 ], [ 134.190341945724299, 35.097941666874476 ], [ 134.190208884732328, 35.093258333105666 ], [ 134.183154993807989, 35.089368892060747 ], [ 134.176304162607039, 35.092285558931451 ], [ 134.170072502943754, 35.076804171475374 ], [ 134.182645837235668, 35.068016667335371 ], [ 134.176889169799438, 35.062460559507258 ], [ 134.179082217870132, 35.054164441335956 ], [ 134.176087782125478, 35.045228892599368 ], [ 134.17228250323501, 35.04379305390637 ], [ 134.156296393763569, 35.047331108244123 ], [ 134.136996666562936, 35.048511108700779 ], [ 134.140106666989141, 35.021731387293755 ], [ 134.137297496982001, 35.019131387003938 ], [ 134.122142775668635, 35.019151387026966 ], [ 134.110980830201242, 35.014568333062186 ], [ 134.100049728112481, 35.017242504937713 ], [ 134.088130271994487, 35.011660838377054 ], [ 134.090320272262829, 34.999688054260332 ], [ 134.086232502827784, 34.994658613704132 ], [ 134.087019727978145, 34.987765559333127 ], [ 134.09367499350617, 34.986933333006959 ], [ 134.099908326807849, 34.996439441327198 ], [ 134.100353332940017, 34.97507555958947 ], [ 134.104777496484303, 34.972165000014797 ], [ 134.099677782004051, 34.966331945962565 ], [ 134.091635836524688, 34.965190279108128 ], [ 134.093576108550678, 34.955495000194162 ], [ 134.10120306097258, 34.953788613054087 ], [ 134.107738611447871, 34.943103891931116 ], [ 134.121891388177119, 34.934500279364443 ], [ 134.112200272224868, 34.932605558899468 ], [ 134.108801659569053, 34.925481667445069 ], [ 134.102435837244116, 34.922680279271503 ], [ 134.098590557408329, 34.92339222487135 ], [ 134.088002502613449, 34.929386108282301 ], [ 134.091340271636341, 34.936494162675501 ], [ 134.086161388037681, 34.942640829210973 ], [ 134.072653605979212, 34.941266387234009 ], [ 134.067292217561885, 34.936819162374491 ], [ 134.058954163104204, 34.939412775679102 ], [ 134.051745551016438, 34.937067775457535 ], [ 134.041061659967681, 34.943326386903266 ], [ 134.033598326601577, 34.944127225091393 ], [ 134.02509360618501, 34.950813892247368 ], [ 134.016031114544376, 34.938345279511111 ], [ 134.011621946295804, 34.921430829569204 ], [ 134.001165278854614, 34.902218613598166 ], [ 134.004386939105984, 34.896046108641031 ], [ 133.999056667231457, 34.890595000259111 ], [ 133.987819169718932, 34.886741666994396 ], [ 133.979483332989503, 34.886319721278142 ], [ 133.976254720978659, 34.88044110847045 ], [ 133.963693890860441, 34.874257775675858 ], [ 133.955354721243452, 34.872730829364343 ], [ 133.93746221810693, 34.870972775273401 ], [ 133.927843060508849, 34.874663333046442 ], [ 133.938498612121293, 34.883939441552059 ], [ 133.930555836682629, 34.887838892051263 ], [ 133.922231945647809, 34.900830829279414 ], [ 133.909230557444289, 34.906655279517565 ], [ 133.902566394023893, 34.901487225555059 ], [ 133.894172775853008, 34.909590000278342 ], [ 133.906273060453486, 34.918221108717262 ], [ 133.900536108854453, 34.922584720908219 ], [ 133.908581659715878, 34.926577225158894 ], [ 133.906335279149857, 34.938182495026183 ], [ 133.910130271594767, 34.943842225438402 ], [ 133.88809861176162, 34.944038333402432 ], [ 133.882938053648331, 34.948340829465735 ], [ 133.874876109045204, 34.939823054490432 ], [ 133.863887497110341, 34.937124721428802 ], [ 133.860708612212761, 34.943713333703442 ], [ 133.854014449207511, 34.944651667440553 ], [ 133.850240830050325, 34.934380279226559 ], [ 133.844171114905066, 34.944968613710614 ], [ 133.835567223548537, 34.944991666931912 ], [ 133.831374720866734, 34.951558333050684 ], [ 133.82234944227298, 34.952990559167006 ], [ 133.81131805408495, 34.946279441243291 ], [ 133.806859999589392, 34.940096387238555 ], [ 133.798505278895618, 34.939378613132533 ], [ 133.79808277559971, 34.933128333006209 ], [ 133.792608884692299, 34.92892333334521 ], [ 133.775104162926823, 34.933454441569268 ], [ 133.766486394131903, 34.937184440909277 ], [ 133.761893332511363, 34.952487225704942 ], [ 133.771469442261036, 34.960280829696558 ], [ 133.780994720529975, 34.961301387549042 ], [ 133.799199999780285, 34.959251108651813 ], [ 133.800599999590418, 34.953250559465801 ], [ 133.808785836597167, 34.951484162364238 ], [ 133.807622503275979, 34.959064162081461 ], [ 133.802324162729974, 34.96577194621841 ], [ 133.805174720437094, 34.968608333307998 ], [ 133.803865278759645, 34.978140558839755 ], [ 133.794103890682095, 34.982520279687208 ], [ 133.787460558258203, 34.98900082942481 ], [ 133.785917496994898, 35.003085000472424 ], [ 133.78957972792216, 35.009716108411737 ], [ 133.78473499372501, 35.019589999878633 ], [ 133.802383061129376, 35.022257505079835 ], [ 133.805110829900968, 35.026342224913776 ], [ 133.819335836579626, 35.035674441222511 ], [ 133.816828612150744, 35.042314721347338 ], [ 133.826094993589095, 35.044610838019821 ], [ 133.822635836774566, 35.046817505423576 ], [ 133.824341946024106, 35.058701387059443 ], [ 133.822361387967703, 35.066438892241138 ], [ 133.828823605924754, 35.077480559680112 ] ] ] ] } },
{ "type": "Feature", "properties": { "name": "玉野市", "id": "33204" }, "geometry": { "type": "MultiPolygon", "coordinates": [ [ [ [ 134.021480829876509, 34.507447494905989 ], [ 134.007561387648025, 34.499204441232052 ], [ 134.018989170014265, 34.498210279380942 ], [ 134.021480829876509, 34.507447494905989 ] ] ], [ [ [ 133.866491114473433, 34.518520559476315 ], [ 133.866433605526481, 34.51069972131512 ], [ 133.870414994156704, 34.49306472106008 ], [ 133.864957223597003, 34.492313613582439 ], [ 133.861603890906849, 34.48130582900086 ], [ 133.863576393735684, 34.476361386968506 ], [ 133.876446393686138, 34.473323333205315 ], [ 133.880998326611575, 34.463377775663844 ], [ 133.880141140501337, 34.45684145896621 ], [ 133.899539999971125, 34.456987495376666 ], [ 133.91017306043841, 34.450941387435137 ], [ 133.934745836551201, 34.450912494915769 ], [ 133.943219442223494, 34.455233892030549 ], [ 133.943618611709667, 34.46429361285999 ], [ 133.934316109001315, 34.473253053885401 ], [ 133.938029169610559, 34.481168891930849 ], [ 133.947652710504258, 34.484832486230289 ], [ 133.950167976670855, 34.492798838295812 ], [ 133.961634721265455, 34.492038054112982 ], [ 133.964810557461306, 34.495220000302822 ], [ 133.956477418698, 34.505970829690114 ], [ 133.961660077650549, 34.513526161902917 ], [ 133.959473799676175, 34.522715081136141 ], [ 133.968796692713227, 34.530068494865191 ], [ 133.977844553283603, 34.533066026975632 ], [ 133.987360609904272, 34.530679892662988 ], [ 133.993135057836753, 34.518465775475192 ], [ 133.99786491623297, 34.521097892353907 ], [ 133.995510894911945, 34.533737225192851 ], [ 134.00117527841644, 34.545524162610093 ], [ 134.010218054219877, 34.550797495707911 ], [ 134.016233890981312, 34.544775829540924 ], [ 134.028595550944033, 34.554840000465674 ], [ 134.030981698746473, 34.570023721317739 ], [ 134.034178404609747, 34.573767622377943 ], [ 134.028885836812037, 34.578440828881185 ], [ 134.023067496567819, 34.575272775418284 ], [ 134.014370557755115, 34.577713613692367 ], [ 134.010163333171363, 34.574964441056181 ], [ 133.987186109051777, 34.577574440907767 ], [ 133.982243332563826, 34.572135829504987 ], [ 133.982516108631557, 34.566990829663098 ], [ 133.977112218254319, 34.559805278890565 ], [ 133.966080830066289, 34.558581667609928 ], [ 133.96172333326524, 34.566260559477314 ], [ 133.938752775820035, 34.576438333662225 ], [ 133.919711114476399, 34.544935279339711 ], [ 133.902216394071388, 34.536948613387835 ], [ 133.893304720536435, 34.542894161836159 ], [ 133.884770272130368, 34.537899162616327 ], [ 133.886582775674583, 34.524794162620537 ], [ 133.875243332813625, 34.524119440859579 ], [ 133.866491114473433, 34.518520559476315 ] ] ] ] } },
{ "type": "Feature", "properties": { "name": "笠岡市", "id": "33205" }, "geometry": { "type": "MultiPolygon", "coordinates": [ [ [ [ 133.538241387929816, 34.309725558987395 ], [ 133.525971387769346, 34.304495829518942 ], [ 133.533533891176148, 34.298328054096487 ], [ 133.53698666730088, 34.300616946514936 ], [ 133.538241387929816, 34.309725558987395 ] ] ], [ [ [ 133.49827416272251, 34.350626108708013 ], [ 133.497248326748945, 34.340324441220048 ], [ 133.506906108430258, 34.335197225471632 ], [ 133.509476939209435, 34.340556108377768 ], [ 133.49827416272251, 34.350626108708013 ] ] ], [ [ [ 133.587135550865014, 34.363728333395898 ], [ 133.581557820636931, 34.361876423358297 ], [ 133.567087691144138, 34.351051559082237 ], [ 133.572456355076838, 34.348071721133067 ], [ 133.580872775558191, 34.351134441501301 ], [ 133.587135550865014, 34.363728333395898 ] ] ], [ [ [ 133.542638391948344, 34.40202263163917 ], [ 133.527497223418209, 34.388042144329575 ], [ 133.51914610900576, 34.389515775232894 ], [ 133.51761333328875, 34.382512775144505 ], [ 133.547785096904818, 34.369033954853194 ], [ 133.558618054179874, 34.367023613049355 ], [ 133.557320272212905, 34.375469999840675 ], [ 133.544995524923593, 34.377374513922746 ], [ 133.551147807725215, 34.391915712340278 ], [ 133.547134760261088, 34.400531261608478 ], [ 133.542638391948344, 34.40202263163917 ] ] ], [ [ [ 133.524794162620537, 34.416423054680308 ], [ 133.518667237103386, 34.408475802416376 ], [ 133.505839441437161, 34.406635829080301 ], [ 133.505160830108252, 34.403355000632814 ], [ 133.513767003944167, 34.389689495473874 ], [ 133.520238443549374, 34.397561081478784 ], [ 133.525956394272271, 34.39988389272753 ], [ 133.523508884827265, 34.405931387423664 ], [ 133.524794162620537, 34.416423054680308 ] ] ], [ [ [ 133.512153191216839, 34.435256775679704 ], [ 133.506749195618909, 34.433357559503804 ], [ 133.499751114822175, 34.426190000568113 ], [ 133.511703605736898, 34.426091387207805 ], [ 133.516376939044562, 34.431942774839229 ], [ 133.512153191216839, 34.435256775679704 ] ] ], [ [ [ 133.570143332948533, 34.585036108729469 ], [ 133.563781387601011, 34.586837225057934 ], [ 133.555223332890591, 34.593701108119717 ], [ 133.552218611599756, 34.599691108258071 ], [ 133.544883891178642, 34.603307225548065 ], [ 133.52935138805617, 34.599675558979925 ], [ 133.523833060747165, 34.592609162083193 ], [ 133.512207224283998, 34.591292495252503 ], [ 133.509788885248895, 34.582488892348579 ], [ 133.505044720437581, 34.579229161996295 ], [ 133.504941114940607, 34.563257495636947 ], [ 133.489890271618833, 34.556583892033018 ], [ 133.477298326756454, 34.547011387665464 ], [ 133.449436666968722, 34.542764440926248 ], [ 133.453929727574973, 34.530166386969256 ], [ 133.447272218238368, 34.51939861345528 ], [ 133.453374720866691, 34.506735000719743 ], [ 133.455438885296417, 34.494901387589039 ], [ 133.445872502613952, 34.483056666931702 ], [ 133.449216069565978, 34.477517666906863 ], [ 133.455223385251088, 34.477373910277777 ], [ 133.456323644620511, 34.454538108147233 ], [ 133.462779935145932, 34.45446620734964 ], [ 133.484024073052638, 34.46474545024239 ], [ 133.490290738826616, 34.459962829521032 ], [ 133.473048664064663, 34.447541531916215 ], [ 133.477884772864059, 34.443415586260357 ], [ 133.489098274665707, 34.440961387657978 ], [ 133.50093538256192, 34.451725297684391 ], [ 133.514403748234486, 34.449182729899121 ], [ 133.524145498715825, 34.45121589199988 ], [ 133.528020583882949, 34.468296099585359 ], [ 133.519384111887348, 34.473131162473237 ], [ 133.518364707865089, 34.479116405197999 ], [ 133.529498418217486, 34.47705173894667 ], [ 133.532017276276292, 34.468942441440561 ], [ 133.540384461573694, 34.461383559603632 ], [ 133.55364675659257, 34.464436360449724 ], [ 133.560657405414986, 34.468304568501082 ], [ 133.573241244687779, 34.465904613407247 ], [ 133.567649727852768, 34.486295828889467 ], [ 133.560387223891325, 34.493532225531851 ], [ 133.545856108672524, 34.492312775414291 ], [ 133.529794993943824, 34.496773613311632 ], [ 133.538038053913169, 34.508701108469438 ], [ 133.544030271779661, 34.511481386856588 ], [ 133.549528326571021, 34.527891387277748 ], [ 133.543386108981849, 34.536180279396433 ], [ 133.544059169694947, 34.54512638707314 ], [ 133.559285836772005, 34.55582305389089 ], [ 133.561333605661389, 34.568385559446085 ], [ 133.570143332948533, 34.585036108729469 ] ] ] ] } },
{ "type": "Feature", "properties": { "name": "井原市・小田郡", "id": "33461" }, "geometry": { "type": "MultiPolygon", "coordinates": [ [ [ [ 133.61873082976399, 34.706086107987574 ], [ 133.625633890891436, 34.702199441351183 ], [ 133.627622503275916, 34.696377225028982 ], [ 133.622878611858482, 34.685595559687386 ], [ 133.614874448696924, 34.683333892445205 ], [ 133.617259170174634, 34.6627088919019 ], [ 133.623455551232723, 34.658190559446837 ], [ 133.622434994279615, 34.649092495122602 ], [ 133.632075551245748, 34.641831946287368 ], [ 133.63388221818991, 34.637678332988742 ], [ 133.633398053777228, 34.623482494921234 ], [ 133.63876138742819, 34.606029162216089 ], [ 133.649377224079672, 34.596251107902333 ], [ 133.632304993480716, 34.583708891951858 ], [ 133.62327527853131, 34.580483613727836 ], [ 133.610120830212168, 34.573576386940772 ], [ 133.60099805341747, 34.576983053924835 ], [ 133.594518326559637, 34.576610829026606 ], [ 133.583293890800519, 34.582540559299446 ], [ 133.584811945514957, 34.589773891951609 ], [ 133.578029442105162, 34.59011305417414 ], [ 133.570143332948533, 34.585036108729469 ], [ 133.563781387601011, 34.586837225057934 ], [ 133.555223332890591, 34.593701108119717 ], [ 133.552218611599756, 34.599691108258071 ], [ 133.544883891178642, 34.603307225548065 ], [ 133.52935138805617, 34.599675558979925 ], [ 133.523833060747165, 34.592609162083193 ], [ 133.512207224283998, 34.591292495252503 ], [ 133.509788885248895, 34.582488892348579 ], [ 133.505044720437581, 34.579229161996295 ], [ 133.504941114940607, 34.563257495636947 ], [ 133.489890271618833, 34.556583892033018 ], [ 133.477298326756454, 34.547011387665464 ], [ 133.449436666968722, 34.542764440926248 ], [ 133.446029727489986, 34.556433613520483 ], [ 133.435077224234533, 34.565772775293397 ], [ 133.426732775597202, 34.569144721251917 ], [ 133.423132502563021, 34.578659721169231 ], [ 133.423169169721518, 34.585543892037037 ], [ 133.405780000047002, 34.589285000702262 ], [ 133.397006108944879, 34.59488416267402 ], [ 133.395860829513708, 34.605345829446549 ], [ 133.384772775942906, 34.616757775650854 ], [ 133.384976394145383, 34.625368613370881 ], [ 133.391915550462386, 34.631133892715013 ], [ 133.387190271413942, 34.636381945870141 ], [ 133.388483890419252, 34.643431108159177 ], [ 133.402786938466534, 34.667065559527998 ], [ 133.40141055755123, 34.674045278866572 ], [ 133.385486939270891, 34.677538054137926 ], [ 133.386410558300668, 34.685379162118693 ], [ 133.374174720686824, 34.695356667176497 ], [ 133.373083060634826, 34.707986666851241 ], [ 133.369131945882714, 34.723553613108834 ], [ 133.361456666591948, 34.727128613394825 ], [ 133.36086639386906, 34.734526667671616 ], [ 133.369648326709012, 34.744586386952221 ], [ 133.384482776059372, 34.743443333343237 ], [ 133.387728326800925, 34.738085279611994 ], [ 133.397878327223111, 34.735568891990852 ], [ 133.409946667005102, 34.725994162700488 ], [ 133.413023333160368, 34.713681387186341 ], [ 133.418939728285864, 34.709791107973331 ], [ 133.426804162881922, 34.696273333547538 ], [ 133.433504720966198, 34.69608833311014 ], [ 133.438013606043114, 34.690439162537359 ], [ 133.446819169469109, 34.6859377751083 ], [ 133.462130829674152, 34.683898892420018 ], [ 133.472595278949029, 34.690054441559255 ], [ 133.489889169949265, 34.695746945964856 ], [ 133.500347781724827, 34.694842775673635 ], [ 133.502583891133781, 34.703799721080316 ], [ 133.508427782016611, 34.708261666942406 ], [ 133.517405837209708, 34.709314162418707 ], [ 133.529983332664756, 34.717747224854577 ], [ 133.521004994185205, 34.726216667565211 ], [ 133.5202769390296, 34.733279441093373 ], [ 133.526861114948588, 34.739222225025742 ], [ 133.536280271417468, 34.742645559145274 ], [ 133.546678884922699, 34.739573332942996 ], [ 133.558990000288304, 34.738374721016612 ], [ 133.554528884500428, 34.732637225327721 ], [ 133.561197496867067, 34.723014161974049 ], [ 133.571926666982108, 34.719518891983341 ], [ 133.581818884833751, 34.719246667199968 ], [ 133.587282776179222, 34.71000749564945 ], [ 133.594259169824909, 34.712863054486434 ], [ 133.608547496869505, 34.706140829036087 ], [ 133.61873082976399, 34.706086107987574 ] ] ] ] } },
{ "type": "Feature", "properties": { "name": "総社市", "id": "33208" }, "geometry": { "type": "MultiPolygon", "coordinates": [ [ [ [ 133.740014162623538, 34.768131666942907 ], [ 133.719836394034473, 34.7753116670998 ], [ 133.719034162796447, 34.769704162117421 ], [ 133.691628327085709, 34.755689720903945 ], [ 133.689003606231495, 34.745268054177416 ], [ 133.679884720803329, 34.751413613647401 ], [ 133.674394721239423, 34.766280559100551 ], [ 133.666464163090723, 34.773385000017811 ], [ 133.661316939225458, 34.781600000239848 ], [ 133.654983890893959, 34.780917225049961 ], [ 133.648614993786964, 34.774819162374513 ], [ 133.646410000021547, 34.765914999977326 ], [ 133.636196939137449, 34.758849586039616 ], [ 133.629435550909989, 34.761516387071651 ], [ 133.620344720732305, 34.753832494973722 ], [ 133.621888612069824, 34.750445000636319 ], [ 133.600038611692639, 34.734697775382074 ], [ 133.59146416324063, 34.725687495681427 ], [ 133.586041114605791, 34.725351667245718 ], [ 133.581818884833751, 34.719246667199968 ], [ 133.587282776179222, 34.71000749564945 ], [ 133.594259169824909, 34.712863054486434 ], [ 133.608547496869505, 34.706140829036087 ], [ 133.61873082976399, 34.706086107987574 ], [ 133.625633890891436, 34.702199441351183 ], [ 133.627622503275916, 34.696377225028982 ], [ 133.622878611858482, 34.685595559687386 ], [ 133.614874448696924, 34.683333892445205 ], [ 133.617259170174634, 34.6627088919019 ], [ 133.623455551232723, 34.658190559446837 ], [ 133.622434994279615, 34.649092495122602 ], [ 133.632075551245748, 34.641831946287368 ], [ 133.645462503092062, 34.646595829633895 ], [ 133.649472217668745, 34.645185829362561 ], [ 133.658864162451209, 34.649989162369991 ], [ 133.666560000243862, 34.649400279099666 ], [ 133.668541387475102, 34.654482225674201 ], [ 133.678856667101513, 34.660400829534694 ], [ 133.681695836693621, 34.657685559540994 ], [ 133.693189442239031, 34.664396386983697 ], [ 133.696697223598107, 34.659346946404526 ], [ 133.710738053618343, 34.655665829714337 ], [ 133.716766667048091, 34.656497494863572 ], [ 133.722958326665548, 34.648044721087047 ], [ 133.727239728230984, 34.64684916235899 ], [ 133.72630333253278, 34.630821108507405 ], [ 133.731122217516372, 34.622158054350791 ], [ 133.739056667031605, 34.6243930539963 ], [ 133.74589944210561, 34.622298054511646 ], [ 133.757196938787729, 34.631411107836414 ], [ 133.751308053923594, 34.634219441474102 ], [ 133.762593060821132, 34.643450279007197 ], [ 133.7707877822304, 34.64023833323256 ], [ 133.780492503126538, 34.644383892202939 ], [ 133.793243333013493, 34.638946946344561 ], [ 133.798874162812467, 34.640528333116151 ], [ 133.798773332623227, 34.653698891890429 ], [ 133.801276666584954, 34.662598892225162 ], [ 133.797168884536404, 34.666628613120054 ], [ 133.795636938893722, 34.676879721621901 ], [ 133.804158611530738, 34.684658613604199 ], [ 133.791668612016906, 34.698513613112823 ], [ 133.799751115121921, 34.711025279093406 ], [ 133.796168611792041, 34.723255000417964 ], [ 133.790773332423441, 34.73132444087031 ], [ 133.77260805411845, 34.742146108056488 ], [ 133.768202502943268, 34.741674721211439 ], [ 133.756229999415041, 34.74941777521019 ], [ 133.74940194624287, 34.747868612946206 ], [ 133.739834994289595, 34.761515000317047 ], [ 133.740014162623538, 34.768131666942907 ] ] ] ] } },
{ "type": "Feature", "properties": { "name": "高梁市", "id": "33209" }, "geometry": { "type": "MultiPolygon", "coordinates": [ [ [ [ 133.581818884833751, 34.719246667199968 ], [ 133.586041114605791, 34.725351667245718 ], [ 133.59146416324063, 34.725687495681427 ], [ 133.600038611692639, 34.734697775382074 ], [ 133.621888612069824, 34.750445000636319 ], [ 133.620344720732305, 34.753832494973722 ], [ 133.629435550909989, 34.761516387071651 ], [ 133.636196939137449, 34.758849586039616 ], [ 133.646410000021547, 34.765914999977326 ], [ 133.648614993786964, 34.774819162374513 ], [ 133.654983890893959, 34.780917225049961 ], [ 133.661316939225458, 34.781600000239848 ], [ 133.660614994086814, 34.796221387606977 ], [ 133.656507223729477, 34.804628333730648 ], [ 133.647744994136247, 34.814351946685065 ], [ 133.648492775920886, 34.82366249562773 ], [ 133.641389728053582, 34.829448333473863 ], [ 133.640503606256516, 34.836301667488044 ], [ 133.647785279267282, 34.847500558903732 ], [ 133.654469170216089, 34.850959999904148 ], [ 133.664571659454623, 34.864690279632725 ], [ 133.663306109189648, 34.874160000483698 ], [ 133.681360271759218, 34.881536667083594 ], [ 133.693741946133969, 34.891410000071517 ], [ 133.704697782276867, 34.892807774958897 ], [ 133.711571659504557, 34.90510833318308 ], [ 133.717520271943044, 34.908718612973644 ], [ 133.712005278420975, 34.919867494889047 ], [ 133.720335551044855, 34.933485829707308 ], [ 133.718913332584293, 34.945539162502428 ], [ 133.714077223784898, 34.952523613174264 ], [ 133.716929441640445, 34.955358054130954 ], [ 133.705359999864186, 34.959795828914423 ], [ 133.702750830086757, 34.953792495427365 ], [ 133.687882775769594, 34.947436946058247 ], [ 133.680734162851422, 34.952065279089425 ], [ 133.676058611815506, 34.950467775567461 ], [ 133.671934448615957, 34.943042225418424 ], [ 133.658070557510314, 34.938246387360948 ], [ 133.647972776222673, 34.940676387005681 ], [ 133.649711659465538, 34.915150279162106 ], [ 133.633482502815355, 34.909368053892649 ], [ 133.632411660270009, 34.903963333441141 ], [ 133.619301946028031, 34.900202775138041 ], [ 133.620876667024618, 34.915720559056581 ], [ 133.616978053794242, 34.932156946485918 ], [ 133.613031114594378, 34.933307495044915 ], [ 133.603741946133937, 34.946325559377101 ], [ 133.601024448519524, 34.952872774958621 ], [ 133.59081306127382, 34.951170558874253 ], [ 133.584135551014924, 34.94684500059634 ], [ 133.59009250286681, 34.93649138736771 ], [ 133.586120272032986, 34.929622775670623 ], [ 133.572261659947685, 34.928765829679321 ], [ 133.561776666559922, 34.913535000539923 ], [ 133.569759728029112, 34.897925559517034 ], [ 133.561845551031411, 34.8868983333914 ], [ 133.553144994246168, 34.882132775507216 ], [ 133.543506109119676, 34.881882775669624 ], [ 133.535611945634855, 34.876888333130125 ], [ 133.526060272263862, 34.876943054178639 ], [ 133.521542502784314, 34.869643892052011 ], [ 133.514268326522142, 34.865910829621157 ], [ 133.495568611702083, 34.874226107848642 ], [ 133.48379472074987, 34.872080279581269 ], [ 133.475954163154142, 34.878346946254624 ], [ 133.472835279224796, 34.885788333464859 ], [ 133.465106394044938, 34.876766108069489 ], [ 133.451179169982765, 34.874176387030673 ], [ 133.444610830225656, 34.879286667645658 ], [ 133.427669727975626, 34.883210000541169 ], [ 133.425094994138703, 34.886509441357703 ], [ 133.414773890502715, 34.876833892670049 ], [ 133.404543890887908, 34.873918332864832 ], [ 133.399099999565351, 34.875178054623575 ], [ 133.39287583665066, 34.869902775392802 ], [ 133.373824449139079, 34.874330000229406 ], [ 133.348485836452255, 34.875188054185401 ], [ 133.330664449005212, 34.855925000438447 ], [ 133.332590557608228, 34.840742225673239 ], [ 133.342229727819699, 34.830276667534235 ], [ 133.3529863938071, 34.830642775243916 ], [ 133.358879727617364, 34.819644161948588 ], [ 133.367897223478167, 34.819006108245333 ], [ 133.378085837191747, 34.808359721623901 ], [ 133.37759221820636, 34.79708277534985 ], [ 133.369796667182527, 34.789773892451251 ], [ 133.372383605718937, 34.780018613468314 ], [ 133.364659999559422, 34.767114162288806 ], [ 133.365978054044035, 34.754550000182405 ], [ 133.369648326709012, 34.744586386952221 ], [ 133.384482776059372, 34.743443333343237 ], [ 133.387728326800925, 34.738085279611994 ], [ 133.397878327223111, 34.735568891990852 ], [ 133.409946667005102, 34.725994162700488 ], [ 133.413023333160368, 34.713681387186341 ], [ 133.418939728285864, 34.709791107973331 ], [ 133.426804162881922, 34.696273333547538 ], [ 133.433504720966198, 34.69608833311014 ], [ 133.438013606043114, 34.690439162537359 ], [ 133.446819169469109, 34.6859377751083 ], [ 133.462130829674152, 34.683898892420018 ], [ 133.472595278949029, 34.690054441559255 ], [ 133.489889169949265, 34.695746945964856 ], [ 133.500347781724827, 34.694842775673635 ], [ 133.502583891133781, 34.703799721080316 ], [ 133.508427782016611, 34.708261666942406 ], [ 133.517405837209708, 34.709314162418707 ], [ 133.529983332664756, 34.717747224854577 ], [ 133.521004994185205, 34.726216667565211 ], [ 133.5202769390296, 34.733279441093373 ], [ 133.526861114948588, 34.739222225025742 ], [ 133.536280271417468, 34.742645559145274 ], [ 133.546678884922699, 34.739573332942996 ], [ 133.558990000288304, 34.738374721016612 ], [ 133.554528884500428, 34.732637225327721 ], [ 133.561197496867067, 34.723014161974049 ], [ 133.571926666982108, 34.719518891983341 ], [ 133.581818884833751, 34.719246667199968 ] ] ] ] } },
{ "type": "Feature", "properties": { "name": "新見市", "id": "33210" }, "geometry": { "type": "MultiPolygon", "coordinates": [ [ [ [ 133.601024448519524, 34.952872774958621 ], [ 133.607415836771565, 34.959099721275152 ], [ 133.621635550940027, 34.961585000447485 ], [ 133.619157782006141, 34.972696108138905 ], [ 133.606926939226923, 34.988071108494921 ], [ 133.6078541627395, 34.99443861345128 ], [ 133.5946680537877, 35.00000972107182 ], [ 133.590507496823534, 34.992899721445042 ], [ 133.584196938737819, 34.996436108439696 ], [ 133.587305279015482, 35.005363333051434 ], [ 133.593766938493445, 35.007987225630018 ], [ 133.599716108511643, 35.015411387225811 ], [ 133.600309727611943, 35.020653613673403 ], [ 133.587539727776289, 35.024695837842671 ], [ 133.583843605897755, 35.031399171234796 ], [ 133.583656108942364, 35.039557774971399 ], [ 133.590770271530914, 35.048066387653705 ], [ 133.585143060603855, 35.054790838026804 ], [ 133.589513060679224, 35.072500279664212 ], [ 133.589367496412933, 35.079493054460954 ], [ 133.583173605577485, 35.087033613510528 ], [ 133.576257782170956, 35.09091055937489 ], [ 133.574242218003974, 35.100047775684345 ], [ 133.575687496880505, 35.112002775707595 ], [ 133.583796394188312, 35.116038054412741 ], [ 133.586228326476203, 35.127661108373502 ], [ 133.591192775726086, 35.136568613550708 ], [ 133.568000557879486, 35.149078613087568 ], [ 133.556726666602458, 35.148760279163582 ], [ 133.538580829841521, 35.151434721735086 ], [ 133.535789442129158, 35.157766386909259 ], [ 133.541444994291169, 35.163371666968885 ], [ 133.52611111453632, 35.182885838410755 ], [ 133.519181946090043, 35.182910558975152 ], [ 133.516340557870535, 35.190517225389669 ], [ 133.508051387861315, 35.193091666946941 ], [ 133.498459999529473, 35.188228892349571 ], [ 133.485438053723215, 35.186400558938715 ], [ 133.474845279286228, 35.182018613168509 ], [ 133.466971659914293, 35.175156667246426 ], [ 133.459826109187702, 35.177787225600014 ], [ 133.456515278457346, 35.17310861327195 ], [ 133.447556394112326, 35.171296107929095 ], [ 133.438052217535869, 35.173074721421301 ], [ 133.41557333294304, 35.184724171383436 ], [ 133.407439170081716, 35.185882225684225 ], [ 133.396101388268562, 35.180596108723478 ], [ 133.393361946296864, 35.169144720952147 ], [ 133.398515279256799, 35.163580559695106 ], [ 133.400359441635032, 35.153271387364668 ], [ 133.405138054077952, 35.142927775496503 ], [ 133.4112241629648, 35.1387525056237 ], [ 133.411825837292668, 35.121146108306277 ], [ 133.403362776171207, 35.114320838535946 ], [ 133.386993890955409, 35.113115279346744 ], [ 133.378787781431015, 35.114666108054507 ], [ 133.36668083015627, 35.110154721063566 ], [ 133.354873890917361, 35.100771108499885 ], [ 133.347271387464616, 35.105595000009316 ], [ 133.338222502566509, 35.10656277485225 ], [ 133.328140271456391, 35.09499805451668 ], [ 133.319427781566901, 35.093856107973068 ], [ 133.299032217862646, 35.10380444172165 ], [ 133.290939727786281, 35.100358892548911 ], [ 133.288262502712428, 35.095914171401944 ], [ 133.290660271554316, 35.08442389244874 ], [ 133.290823890610113, 35.070943892246873 ], [ 133.283420558212242, 35.065950278882326 ], [ 133.2769119460296, 35.066109171101402 ], [ 133.266927496406879, 35.052430559222955 ], [ 133.274466666903209, 35.044976666939704 ], [ 133.285236108659547, 35.040658613504263 ], [ 133.30299805361733, 35.020650559575699 ], [ 133.304998326611553, 35.015193333105913 ], [ 133.315703890422242, 35.012431387398635 ], [ 133.321211114701214, 35.003628613669662 ], [ 133.319222503215997, 34.998312775014597 ], [ 133.321725837177723, 34.987925559517009 ], [ 133.313276938579861, 34.980070000330329 ], [ 133.310838053633347, 34.974644161998526 ], [ 133.303079169767898, 34.972044441397884 ], [ 133.304892502487064, 34.964961946636606 ], [ 133.297261659598007, 34.9560038923658 ], [ 133.309445550571809, 34.937045000126716 ], [ 133.30187333268816, 34.92891361347256 ], [ 133.304631659523579, 34.921716946180197 ], [ 133.3029694416864, 34.913084441094156 ], [ 133.295793890475693, 34.904008333717684 ], [ 133.29801055744133, 34.889339441462084 ], [ 133.305699170080743, 34.882061946701526 ], [ 133.309405836510223, 34.874042775653606 ], [ 133.316811115040991, 34.867178054423732 ], [ 133.324028611531276, 34.864355828958367 ], [ 133.323114720468084, 34.859272495629227 ], [ 133.330664449005212, 34.855925000438447 ], [ 133.348485836452255, 34.875188054185401 ], [ 133.373824449139079, 34.874330000229406 ], [ 133.39287583665066, 34.869902775392802 ], [ 133.399099999565351, 34.875178054623575 ], [ 133.404543890887908, 34.873918332864832 ], [ 133.414773890502715, 34.876833892670049 ], [ 133.425094994138703, 34.886509441357703 ], [ 133.427669727975626, 34.883210000541169 ], [ 133.444610830225656, 34.879286667645658 ], [ 133.451179169982765, 34.874176387030673 ], [ 133.465106394044938, 34.876766108069489 ], [ 133.472835279224796, 34.885788333464859 ], [ 133.475954163154142, 34.878346946254624 ], [ 133.48379472074987, 34.872080279581269 ], [ 133.495568611702083, 34.874226107848642 ], [ 133.514268326522142, 34.865910829621157 ], [ 133.521542502784314, 34.869643892052011 ], [ 133.526060272263862, 34.876943054178639 ], [ 133.535611945634855, 34.876888333130125 ], [ 133.543506109119676, 34.881882775669624 ], [ 133.553144994246168, 34.882132775507216 ], [ 133.561845551031411, 34.8868983333914 ], [ 133.569759728029112, 34.897925559517034 ], [ 133.561776666559922, 34.913535000539923 ], [ 133.572261659947685, 34.928765829679321 ], [ 133.586120272032986, 34.929622775670623 ], [ 133.59009250286681, 34.93649138736771 ], [ 133.584135551014924, 34.94684500059634 ], [ 133.59081306127382, 34.951170558874253 ], [ 133.601024448519524, 34.952872774958621 ] ] ] ] } },
{ "type": "Feature", "properties": { "name": "備前市・和気郡", "id": "33346" }, "geometry": { "type": "MultiPolygon", "coordinates": [ [ [ [ 134.1522002714255, 34.772444721047066 ], [ 134.149749727667881, 34.783658054675527 ], [ 134.134270829535239, 34.793005829255662 ], [ 134.118616108546689, 34.793665559318185 ], [ 134.108543332908539, 34.802272225083186 ], [ 134.101245837225633, 34.802714721207451 ], [ 134.089541659919746, 34.812408053988577 ], [ 134.087731660088139, 34.820618613358363 ], [ 134.065464993914361, 34.828193054366011 ], [ 134.060778053864169, 34.824695000074257 ], [ 134.054743060643773, 34.832537495708891 ], [ 134.045913060839098, 34.8278647208802 ], [ 134.038693060636319, 34.832616946315056 ], [ 134.039239441946734, 34.842623892478684 ], [ 134.045158053901105, 34.849025279393175 ], [ 134.043464720420616, 34.857863892005071 ], [ 134.054336666903737, 34.857495559372637 ], [ 134.059865836439258, 34.854142495579765 ], [ 134.077095550919012, 34.863294440985726 ], [ 134.080998327111161, 34.874517225589557 ], [ 134.096396394178328, 34.875535279729434 ], [ 134.104071387484623, 34.881020000272827 ], [ 134.093071114940017, 34.885426108128456 ], [ 134.097561387647943, 34.892510000436232 ], [ 134.094894720614889, 34.897433333581546 ], [ 134.08516499406926, 34.896609162482889 ], [ 134.093162218061934, 34.90629500031406 ], [ 134.100446938875166, 34.918613053949343 ], [ 134.098590557408329, 34.92339222487135 ], [ 134.102435837244116, 34.922680279271503 ], [ 134.110896667147586, 34.910875278970991 ], [ 134.120162243692675, 34.916073640086495 ], [ 134.127354993538233, 34.91357638734047 ], [ 134.125426393813086, 34.907806108665056 ], [ 134.124357224006758, 34.89055944106542 ], [ 134.138672776227736, 34.887218892238138 ], [ 134.153859999939073, 34.887735559048849 ], [ 134.160685837181745, 34.881083892607592 ], [ 134.165758326485616, 34.880944162243338 ], [ 134.17194027162634, 34.898729162221116 ], [ 134.186405278580764, 34.897334162641528 ], [ 134.192138053728286, 34.890296107879124 ], [ 134.19692499389339, 34.89101166695491 ], [ 134.19969221772169, 34.894296387668192 ], [ 134.194938885221404, 34.901258054016012 ], [ 134.194919441878824, 34.910968053932606 ], [ 134.202208611638184, 34.914882225434383 ], [ 134.205320829792527, 34.910470279180117 ], [ 134.223947782264418, 34.90718472119795 ], [ 134.226410830195732, 34.910322775076054 ], [ 134.226398053527419, 34.923535829514947 ], [ 134.235988326699953, 34.92955500006326 ], [ 134.23563610901931, 34.937424441185044 ], [ 134.254202502943258, 34.946003612876495 ], [ 134.253727223832357, 34.939086945905899 ], [ 134.26288416317368, 34.937656946510913 ], [ 134.276096393833541, 34.929680279221543 ], [ 134.274799441940786, 34.924280279311517 ], [ 134.284491659562491, 34.921034721375349 ], [ 134.284019170148667, 34.916966108399208 ], [ 134.295014993747031, 34.907462495697644 ], [ 134.289148054139446, 34.897691108058268 ], [ 134.277790829882974, 34.89514082948574 ], [ 134.269292776140787, 34.889091108068214 ], [ 134.267075279100936, 34.875477775279137 ], [ 134.254000557479799, 34.856958333160605 ], [ 134.254557496831126, 34.849262495367896 ], [ 134.260963891170718, 34.846967495653473 ], [ 134.264611387605555, 34.837312775264422 ], [ 134.261730271834608, 34.831148613317907 ], [ 134.266295279103929, 34.825641387240296 ], [ 134.283346667015167, 34.829745000031778 ], [ 134.287931387423669, 34.821559440915507 ], [ 134.307350829677148, 34.810923333545077 ], [ 134.311285279092431, 34.802552225404952 ], [ 134.316361388167593, 34.802574441357422 ], [ 134.319209442162105, 34.78818777524566 ], [ 134.315827781726853, 34.781040829670587 ], [ 134.323268053777724, 34.774255828843479 ], [ 134.329599727945151, 34.774238054642581 ], [ 134.333066394098864, 34.76573694590337 ], [ 134.321530558188783, 34.761709162148179 ], [ 134.318448612113798, 34.756261107863907 ], [ 134.316619727418583, 34.744129162630827 ], [ 134.313026938542407, 34.738397225651511 ], [ 134.315129754034956, 34.732206865554474 ], [ 134.298110038447589, 34.736544730155231 ], [ 134.279035537460118, 34.733940018317242 ], [ 134.271114877249829, 34.726260648909886 ], [ 134.268587262492247, 34.719177847479727 ], [ 134.251720285063129, 34.71842711771734 ], [ 134.244056860635624, 34.715265090611467 ], [ 134.23197901412027, 34.722689081336114 ], [ 134.229340039011618, 34.731104216686276 ], [ 134.2079768092824, 34.73003535984401 ], [ 134.204379805283907, 34.722766757579848 ], [ 134.193935979262051, 34.720149793378312 ], [ 134.205537146422216, 34.710725631282912 ], [ 134.220163216559286, 34.708592955600466 ], [ 134.229366043807886, 34.71475495557678 ], [ 134.231699999455486, 34.706946667454815 ], [ 134.221606393720208, 34.703001108714261 ], [ 134.212152217650782, 34.704418612928691 ], [ 134.203146394090822, 34.701726108373236 ], [ 134.185045550411928, 34.689469441561528 ], [ 134.174541659569968, 34.684892775481273 ], [ 134.16211999953839, 34.684399161891861 ], [ 134.159045278616759, 34.701460559257441 ], [ 134.165237496713189, 34.714655279217823 ], [ 134.144009728266383, 34.725864721479752 ], [ 134.136095551268795, 34.718430279733695 ], [ 134.128218611599664, 34.717163613410094 ], [ 134.118568054172442, 34.705560000093953 ], [ 134.107516938456001, 34.712665279179362 ], [ 134.111110557406391, 34.727348333059183 ], [ 134.102298053912136, 34.726682225004708 ], [ 134.106202217758209, 34.742067495618471 ], [ 134.119733891206124, 34.747612775609184 ], [ 134.122523891264677, 34.752911108061255 ], [ 134.142296667257483, 34.766282775030106 ], [ 134.146515836636581, 34.76678861310404 ], [ 134.1522002714255, 34.772444721047066 ] ] ], [ [ [ 134.268679169608049, 34.701193613494524 ], [ 134.261067496667692, 34.692431387498573 ], [ 134.255321193018744, 34.690230748250485 ], [ 134.24966138796276, 34.695529721019852 ], [ 134.259006108445192, 34.7070266675467 ], [ 134.268679169608049, 34.701193613494524 ] ] ], [ [ [ 134.310964266987412, 34.727232522862664 ], [ 134.318390803692751, 34.716085198573126 ], [ 134.32303944161697, 34.714101107979786 ], [ 134.331777781619394, 34.723033892200419 ], [ 134.338808884622381, 34.719729162470912 ], [ 134.346961388257569, 34.708129999899654 ], [ 134.32721444888773, 34.712196108263811 ], [ 134.321382217715268, 34.703145000241648 ], [ 134.313046393576315, 34.703539162302548 ], [ 134.306677781554413, 34.712119721647866 ], [ 134.302868327111696, 34.708165828889946 ], [ 134.281905837084764, 34.706705559214242 ], [ 134.274701945538368, 34.713457224871092 ], [ 134.280317781840267, 34.722336946393 ], [ 134.292851854429614, 34.72971225231862 ], [ 134.298344993526712, 34.730201666973414 ], [ 134.310964266987412, 34.727232522862664 ] ] ] ] } },
{ "type": "Feature", "properties": { "name": "瀬戸内市", "id": "33212" }, "geometry": { "type": "MultiPolygon", "coordinates": [ [ [ [ 134.198983332514899, 34.617206387165083 ], [ 134.188448612013872, 34.614743332938531 ], [ 134.177509999686777, 34.608806108615056 ], [ 134.167909999447033, 34.610251108701732 ], [ 134.167907496633688, 34.602202224952748 ], [ 134.183658053876115, 34.606131387253754 ], [ 134.194675278641284, 34.607071387434644 ], [ 134.198983332514899, 34.617206387165083 ] ] ], [ [ [ 134.242137496947976, 34.678323612844508 ], [ 134.228857782061027, 34.678928054386233 ], [ 134.218493332901062, 34.675751387216792 ], [ 134.22460416325157, 34.667801667213212 ], [ 134.237355836702591, 34.67324416188859 ], [ 134.242137496947976, 34.678323612844508 ] ] ], [ [ [ 134.256933333006941, 34.687352225225084 ], [ 134.244406393840109, 34.680810279670709 ], [ 134.256402217688219, 34.679648613692621 ], [ 134.256933333006941, 34.687352225225084 ] ] ], [ [ [ 134.112186938876221, 34.588467775067841 ], [ 134.118426757189127, 34.589811631101952 ], [ 134.127976393595759, 34.598547225474135 ], [ 134.138378637664005, 34.599545892029369 ], [ 134.13436221774225, 34.607821667535973 ], [ 134.141326666592477, 34.607850000677047 ], [ 134.153906109079685, 34.615356946665827 ], [ 134.162219728058062, 34.616450559146017 ], [ 134.166628612120803, 34.613046386881308 ], [ 134.173154449018625, 34.617337305971944 ], [ 134.17907333256835, 34.631743613277195 ], [ 134.174564968198752, 34.634089108125863 ], [ 134.172045279166355, 34.649579721726809 ], [ 134.176599999990117, 34.653749440983972 ], [ 134.188526393478355, 34.650805829525439 ], [ 134.19524805415449, 34.658265279619002 ], [ 134.192798053587353, 34.664962494923259 ], [ 134.202621945446481, 34.663648892082733 ], [ 134.206682087708259, 34.670148865377882 ], [ 134.217909441767347, 34.675804162132408 ], [ 134.227677859845471, 34.687960279343486 ], [ 134.23542610922766, 34.691503892390756 ], [ 134.237855278798179, 34.697664162071476 ], [ 134.245281387426189, 34.701052775165465 ], [ 134.229366043807886, 34.71475495557678 ], [ 134.231699999455486, 34.706946667454815 ], [ 134.221606393720208, 34.703001108714261 ], [ 134.212152217650782, 34.704418612928691 ], [ 134.203146394090822, 34.701726108373236 ], [ 134.185045550411928, 34.689469441561528 ], [ 134.174541659569968, 34.684892775481273 ], [ 134.16211999953839, 34.684399161891861 ], [ 134.159045278616759, 34.701460559257441 ], [ 134.165237496713189, 34.714655279217823 ], [ 134.144009728266383, 34.725864721479752 ], [ 134.136095551268795, 34.718430279733695 ], [ 134.128218611599664, 34.717163613410094 ], [ 134.118568054172442, 34.705560000093953 ], [ 134.107516938456001, 34.712665279179362 ], [ 134.111110557406391, 34.727348333059183 ], [ 134.102298053912136, 34.726682225004708 ], [ 134.092990272183329, 34.714336387714184 ], [ 134.083389441869258, 34.706120559216458 ], [ 134.08415972828891, 34.698984441478842 ], [ 134.07773360552153, 34.681976945879398 ], [ 134.072541660169577, 34.676618892148213 ], [ 134.060198885070577, 34.670144721301881 ], [ 134.051930000169477, 34.659212225264014 ], [ 134.058213890658635, 34.651790279597776 ], [ 134.066836666878771, 34.647698333711162 ], [ 134.077309754141879, 34.650097468623358 ], [ 134.073073890647606, 34.637856108272842 ], [ 134.080003605881757, 34.632471946323335 ], [ 134.086308326468156, 34.632518613043601 ], [ 134.101294720774831, 34.639512494905773 ], [ 134.116340271586296, 34.627436946158184 ], [ 134.109651115106885, 34.605630279613763 ], [ 134.112867497237289, 34.600788892693288 ], [ 134.112186938876221, 34.588467775067841 ] ] ] ] } },
{ "type": "Feature", "properties": { "name": "赤磐市", "id": "33213" }, "geometry": { "type": "MultiPolygon", "coordinates": [ [ [ [ 133.993589169604547, 34.719641386840578 ], [ 134.000489727918648, 34.726227775091786 ], [ 134.028703890472229, 34.73782055967115 ], [ 134.035470271735676, 34.744320279357453 ], [ 134.045313606038121, 34.749206667453791 ], [ 134.051218612149341, 34.76147472148125 ], [ 134.048876393530804, 34.766552225404951 ], [ 134.0582466664506, 34.767811946264374 ], [ 134.06455250309557, 34.779838333572286 ], [ 134.081042217624258, 34.782884721352843 ], [ 134.087045278616756, 34.781955000423011 ], [ 134.092910272091444, 34.770141387315221 ], [ 134.090217781925162, 34.762642775343863 ], [ 134.109072502993627, 34.76083944128726 ], [ 134.119343606122584, 34.757211666984915 ], [ 134.122523891264677, 34.752911108061255 ], [ 134.142296667257483, 34.766282775030106 ], [ 134.146515836636581, 34.76678861310404 ], [ 134.1522002714255, 34.772444721047066 ], [ 134.149749727667881, 34.783658054675527 ], [ 134.134270829535239, 34.793005829255662 ], [ 134.118616108546689, 34.793665559318185 ], [ 134.108543332908539, 34.802272225083186 ], [ 134.101245837225633, 34.802714721207451 ], [ 134.089541659919746, 34.812408053988577 ], [ 134.087731660088139, 34.820618613358363 ], [ 134.065464993914361, 34.828193054366011 ], [ 134.060778053864169, 34.824695000074257 ], [ 134.054743060643773, 34.832537495708891 ], [ 134.045913060839098, 34.8278647208802 ], [ 134.038693060636319, 34.832616946315056 ], [ 134.039239441946734, 34.842623892478684 ], [ 134.045158053901105, 34.849025279393175 ], [ 134.043464720420616, 34.857863892005071 ], [ 134.054336666903737, 34.857495559372637 ], [ 134.059865836439258, 34.854142495579765 ], [ 134.077095550919012, 34.863294440985726 ], [ 134.080998327111161, 34.874517225589557 ], [ 134.096396394178328, 34.875535279729434 ], [ 134.104071387484623, 34.881020000272827 ], [ 134.093071114940017, 34.885426108128456 ], [ 134.097561387647943, 34.892510000436232 ], [ 134.094894720614889, 34.897433333581546 ], [ 134.08516499406926, 34.896609162482889 ], [ 134.093162218061934, 34.90629500031406 ], [ 134.100446938875166, 34.918613053949343 ], [ 134.098590557408329, 34.92339222487135 ], [ 134.088002502613449, 34.929386108282301 ], [ 134.091340271636341, 34.936494162675501 ], [ 134.086161388037681, 34.942640829210973 ], [ 134.072653605979212, 34.941266387234009 ], [ 134.067292217561885, 34.936819162374491 ], [ 134.058954163104204, 34.939412775679102 ], [ 134.051745551016438, 34.937067775457535 ], [ 134.041061659967681, 34.943326386903266 ], [ 134.033598326601577, 34.944127225091393 ], [ 134.02509360618501, 34.950813892247368 ], [ 134.016031114544376, 34.938345279511111 ], [ 134.011621946295804, 34.921430829569204 ], [ 134.001165278854614, 34.902218613598166 ], [ 134.004386939105984, 34.896046108641031 ], [ 133.999056667231457, 34.890595000259111 ], [ 133.987819169718932, 34.886741666994396 ], [ 133.979483332989503, 34.886319721278142 ], [ 133.976254720978659, 34.88044110847045 ], [ 133.963693890860441, 34.874257775675858 ], [ 133.955354721243452, 34.872730829364343 ], [ 133.961109441647523, 34.868014162223858 ], [ 133.968289727788715, 34.853152775480282 ], [ 133.977566667267979, 34.847132225371979 ], [ 133.981931387423629, 34.855044162158435 ], [ 133.993985278697664, 34.850072775538194 ], [ 133.992816938850751, 34.841292775341344 ], [ 133.987742502514493, 34.835759441045411 ], [ 133.991203605462033, 34.827081108306572 ], [ 133.987086666516461, 34.818256387522297 ], [ 133.985550829507247, 34.807003333537068 ], [ 133.973670557750097, 34.802568333162071 ], [ 133.961704162417277, 34.786012225284026 ], [ 133.970290271478916, 34.784224441404888 ], [ 133.980683332569811, 34.778641946568655 ], [ 133.976621388066633, 34.769270829185473 ], [ 133.985851659926197, 34.761328613125045 ], [ 133.971421945966085, 34.749433333481591 ], [ 133.984093890920349, 34.739499441046405 ], [ 133.986529999659865, 34.733476666914726 ], [ 133.993963332541853, 34.726539721131303 ], [ 133.993589169604547, 34.719641386840578 ] ] ] ] } },
{ "type": "Feature", "properties": { "name": "真庭市・真庭郡", "id": "33586" }, "geometry": { "type": "MultiPolygon", "coordinates": [ [ [ [ 133.556726666602458, 35.148760279163582 ], [ 133.538580829841521, 35.151434721735086 ], [ 133.535789442129158, 35.157766386909259 ], [ 133.541444994291169, 35.163371666968885 ], [ 133.52611111453632, 35.182885838410755 ], [ 133.52907555069612, 35.186936946083222 ], [ 133.520682502695422, 35.206016108256847 ], [ 133.521513605768405, 35.210573054003305 ], [ 133.515410272166378, 35.220534171614759 ], [ 133.505541114730704, 35.228172504957172 ], [ 133.514492503226506, 35.235488613009124 ], [ 133.517227223757459, 35.240737225542603 ], [ 133.534830829579164, 35.236716946629826 ], [ 133.545946939299824, 35.243681387386175 ], [ 133.55491000009647, 35.241810000730993 ], [ 133.566637496823091, 35.255589721588422 ], [ 133.566769727740848, 35.265809721641403 ], [ 133.571915550462336, 35.272569441626501 ], [ 133.568849441448606, 35.277494720904713 ], [ 133.570543890987892, 35.287086108337292 ], [ 133.577552776239713, 35.297261108113673 ], [ 133.575764449170038, 35.300815000412001 ], [ 133.57678639377707, 35.314413613097827 ], [ 133.592446108700983, 35.330814441333473 ], [ 133.589341114800618, 35.337858613284425 ], [ 133.596799441640997, 35.345020559551244 ], [ 133.605811387785366, 35.341062505630191 ], [ 133.618001945433548, 35.339601108204647 ], [ 133.62219138772241, 35.336709441587516 ], [ 133.631613332988991, 35.339502225047681 ], [ 133.649177223849847, 35.336337505371603 ], [ 133.665738885041605, 35.324010279550805 ], [ 133.673964993689538, 35.323372505536781 ], [ 133.677361946196925, 35.319293333620521 ], [ 133.691756109057224, 35.320844171321482 ], [ 133.696061660117607, 35.326923892323805 ], [ 133.709022775780568, 35.325059720929403 ], [ 133.717205836580206, 35.319920278897825 ], [ 133.727134449095615, 35.317010279600765 ], [ 133.748684994117298, 35.317062225341488 ], [ 133.750692503056598, 35.311396387633238 ], [ 133.756960272298784, 35.308197775207191 ], [ 133.767010271706681, 35.308634441026697 ], [ 133.775704993690624, 35.299557775171252 ], [ 133.793479999502438, 35.292851387681424 ], [ 133.79987389056771, 35.292693333630496 ], [ 133.801379442007715, 35.284830559183035 ], [ 133.809279169598085, 35.276916946060282 ], [ 133.807606393720107, 35.270285559331171 ], [ 133.815221945436519, 35.264888332930298 ], [ 133.81814610905576, 35.252634171629779 ], [ 133.820580557646736, 35.242171386999985 ], [ 133.81432444901418, 35.230906108530121 ], [ 133.810284448868288, 35.229158613379354 ], [ 133.81657055798496, 35.219002775457795 ], [ 133.808112502490076, 35.219745279121412 ], [ 133.800047224100126, 35.214446108501136 ], [ 133.778557781716358, 35.222436387029688 ], [ 133.781349169428722, 35.212737505431562 ], [ 133.77253555077516, 35.205858332995717 ], [ 133.778489999813701, 35.197299441016469 ], [ 133.779751388016166, 35.18947777547902 ], [ 133.777338884681853, 35.180621667456023 ], [ 133.779250272282297, 35.176208613236952 ], [ 133.770486939220973, 35.171121387641961 ], [ 133.770031387638483, 35.155747225454149 ], [ 133.780956394122313, 35.153024721313898 ], [ 133.782001945933075, 35.148014721402319 ], [ 133.792701659653972, 35.137583333004443 ], [ 133.802566939212966, 35.13160194657263 ], [ 133.816845836865923, 35.132267505141328 ], [ 133.821563605675919, 35.127248613632673 ], [ 133.833564993629579, 35.126254440989726 ], [ 133.8346974972917, 35.120906667408804 ], [ 133.843764162686057, 35.116693054041264 ], [ 133.845601387693932, 35.101507775563448 ], [ 133.836547782254456, 35.098698613650129 ], [ 133.832031659433596, 35.088252505149057 ], [ 133.835442502869228, 35.08232444131994 ], [ 133.828823605924754, 35.077480559680112 ], [ 133.822361387967703, 35.066438892241138 ], [ 133.824341946024106, 35.058701387059443 ], [ 133.822635836774566, 35.046817505423576 ], [ 133.826094993589095, 35.044610838019821 ], [ 133.816828612150744, 35.042314721347338 ], [ 133.819335836579626, 35.035674441222511 ], [ 133.805110829900968, 35.026342224913776 ], [ 133.802383061129376, 35.022257505079835 ], [ 133.78473499372501, 35.019589999878633 ], [ 133.78957972792216, 35.009716108411737 ], [ 133.785917496994898, 35.003085000472424 ], [ 133.787460558258203, 34.98900082942481 ], [ 133.794103890682095, 34.982520279687208 ], [ 133.803865278759645, 34.978140558839755 ], [ 133.805174720437094, 34.968608333307998 ], [ 133.802324162729974, 34.96577194621841 ], [ 133.807622503275979, 34.959064162081461 ], [ 133.808785836597167, 34.951484162364238 ], [ 133.800599999590418, 34.953250559465801 ], [ 133.799199999780285, 34.959251108651813 ], [ 133.780994720529975, 34.961301387549042 ], [ 133.771469442261036, 34.960280829696558 ], [ 133.761893332511363, 34.952487225704942 ], [ 133.755412503084585, 34.952061387722893 ], [ 133.750106666689362, 34.945591387032948 ], [ 133.742224993888385, 34.945639721096313 ], [ 133.733762775431842, 34.950257225390715 ], [ 133.723847497164343, 34.948747225004468 ], [ 133.716929441640445, 34.955358054130954 ], [ 133.705359999864186, 34.959795828914423 ], [ 133.702750830086757, 34.953792495427365 ], [ 133.687882775769594, 34.947436946058247 ], [ 133.680734162851422, 34.952065279089425 ], [ 133.676058611815506, 34.950467775567461 ], [ 133.671934448615957, 34.943042225418424 ], [ 133.658070557510314, 34.938246387360948 ], [ 133.647972776222673, 34.940676387005681 ], [ 133.649711659465538, 34.915150279162106 ], [ 133.633482502815355, 34.909368053892649 ], [ 133.632411660270009, 34.903963333441141 ], [ 133.619301946028031, 34.900202775138041 ], [ 133.620876667024618, 34.915720559056581 ], [ 133.616978053794242, 34.932156946485918 ], [ 133.613031114594378, 34.933307495044915 ], [ 133.603741946133937, 34.946325559377101 ], [ 133.601024448519524, 34.952872774958621 ], [ 133.607415836771565, 34.959099721275152 ], [ 133.621635550940027, 34.961585000447485 ], [ 133.619157782006141, 34.972696108138905 ], [ 133.606926939226923, 34.988071108494921 ], [ 133.6078541627395, 34.99443861345128 ], [ 133.5946680537877, 35.00000972107182 ], [ 133.590507496823534, 34.992899721445042 ], [ 133.584196938737819, 34.996436108439696 ], [ 133.587305279015482, 35.005363333051434 ], [ 133.593766938493445, 35.007987225630018 ], [ 133.599716108511643, 35.015411387225811 ], [ 133.600309727611943, 35.020653613673403 ], [ 133.587539727776289, 35.024695837842671 ], [ 133.583843605897755, 35.031399171234796 ], [ 133.583656108942364, 35.039557774971399 ], [ 133.590770271530914, 35.048066387653705 ], [ 133.585143060603855, 35.054790838026804 ], [ 133.589513060679224, 35.072500279664212 ], [ 133.589367496412933, 35.079493054460954 ], [ 133.583173605577485, 35.087033613510528 ], [ 133.576257782170956, 35.09091055937489 ], [ 133.574242218003974, 35.100047775684345 ], [ 133.575687496880505, 35.112002775707595 ], [ 133.583796394188312, 35.116038054412741 ], [ 133.586228326476203, 35.127661108373502 ], [ 133.591192775726086, 35.136568613550708 ], [ 133.568000557879486, 35.149078613087568 ], [ 133.556726666602458, 35.148760279163582 ] ] ] ] } },
{ "type": "Feature", "properties": { "name": "美作市・英田郡", "id": "33215" }, "geometry": { "type": "MultiPolygon", "coordinates": [ [ [ [ 134.394750000212412, 35.191353892568145 ], [ 134.399674162532619, 35.187624721503767 ], [ 134.411083060934629, 35.186966946567395 ], [ 134.412633332962059, 35.177649721057833 ], [ 134.406183890774059, 35.165776946049277 ], [ 134.413161114493846, 35.158618613258454 ], [ 134.407021388026692, 35.147330559457828 ], [ 134.39747194587369, 35.152141387415156 ], [ 134.383084721282898, 35.152490279402912 ], [ 134.367393333135851, 35.14696138685855 ], [ 134.362475550606291, 35.140092505364862 ], [ 134.363293890500699, 35.135526108643035 ], [ 134.356430271839599, 35.124824170898819 ], [ 134.360730272284286, 35.1203491713772 ], [ 134.352283890888884, 35.11110027905471 ], [ 134.355030829609177, 35.0994277749719 ], [ 134.349551114692304, 35.090222774961148 ], [ 134.336539441841865, 35.08875083838052 ], [ 134.319083332929495, 35.083442505467303 ], [ 134.321159442154567, 35.067497225216812 ], [ 134.314540271816099, 35.060904440987201 ], [ 134.31633194616245, 35.043199721689859 ], [ 134.307735550655252, 35.045501946557636 ], [ 134.305305278515903, 35.040169170970501 ], [ 134.297787224101171, 35.043106667039126 ], [ 134.281588053545875, 35.033616107997034 ], [ 134.27520805340896, 35.023309720866962 ], [ 134.267598054106998, 35.021537505151798 ], [ 134.264438326567529, 35.016691667486498 ], [ 134.265762217652309, 35.004966946067782 ], [ 134.278971114525348, 35.001015000342022 ], [ 134.282364720655437, 34.996593054525874 ], [ 134.27783722410868, 34.987107495714383 ], [ 134.271088885044037, 34.983902225607267 ], [ 134.277075278901066, 34.975788613154009 ], [ 134.274295550899069, 34.965750829237436 ], [ 134.276955551257743, 34.963330279668696 ], [ 134.259990000038556, 34.952306387329941 ], [ 134.254202502943258, 34.946003612876495 ], [ 134.23563610901931, 34.937424441185044 ], [ 134.235988326699953, 34.92955500006326 ], [ 134.226398053527419, 34.923535829514947 ], [ 134.226410830195732, 34.910322775076054 ], [ 134.223947782264418, 34.90718472119795 ], [ 134.205320829792527, 34.910470279180117 ], [ 134.202208611638184, 34.914882225434383 ], [ 134.194919441878824, 34.910968053932606 ], [ 134.194938885221404, 34.901258054016012 ], [ 134.19969221772169, 34.894296387668192 ], [ 134.19692499389339, 34.89101166695491 ], [ 134.192138053728286, 34.890296107879124 ], [ 134.186405278580764, 34.897334162641528 ], [ 134.17194027162634, 34.898729162221116 ], [ 134.165758326485616, 34.880944162243338 ], [ 134.160685837181745, 34.881083892607592 ], [ 134.153859999939073, 34.887735559048849 ], [ 134.138672776227736, 34.887218892238138 ], [ 134.124357224006758, 34.89055944106542 ], [ 134.125426393813086, 34.907806108665056 ], [ 134.127354993538233, 34.91357638734047 ], [ 134.120162243692675, 34.916073640086495 ], [ 134.110896667147586, 34.910875278970991 ], [ 134.102435837244116, 34.922680279271503 ], [ 134.108801659569053, 34.925481667445069 ], [ 134.112200272224868, 34.932605558899468 ], [ 134.121891388177119, 34.934500279364443 ], [ 134.107738611447871, 34.943103891931116 ], [ 134.10120306097258, 34.953788613054087 ], [ 134.093576108550678, 34.955495000194162 ], [ 134.091635836524688, 34.965190279108128 ], [ 134.099677782004051, 34.966331945962565 ], [ 134.104777496484303, 34.972165000014797 ], [ 134.100353332940017, 34.97507555958947 ], [ 134.099908326807849, 34.996439441327198 ], [ 134.09367499350617, 34.986933333006959 ], [ 134.087019727978145, 34.987765559333127 ], [ 134.086232502827784, 34.994658613704132 ], [ 134.090320272262829, 34.999688054260332 ], [ 134.088130271994487, 35.011660838377054 ], [ 134.100049728112481, 35.017242504937713 ], [ 134.110980830201242, 35.014568333062186 ], [ 134.122142775668635, 35.019151387026966 ], [ 134.137297496982001, 35.019131387003938 ], [ 134.140106666989141, 35.021731387293755 ], [ 134.136996666562936, 35.048511108700779 ], [ 134.156296393763569, 35.047331108244123 ], [ 134.17228250323501, 35.04379305390637 ], [ 134.176087782125478, 35.045228892599368 ], [ 134.179082217870132, 35.054164441335956 ], [ 134.176889169799438, 35.062460559507258 ], [ 134.182645837235668, 35.068016667335371 ], [ 134.170072502943754, 35.076804171475374 ], [ 134.176304162607039, 35.092285558931451 ], [ 134.183154993807989, 35.089368892060747 ], [ 134.190208884732328, 35.093258333105666 ], [ 134.190341945724299, 35.097941666874476 ], [ 134.198952502855832, 35.100166108479186 ], [ 134.214983890494182, 35.100109171501117 ], [ 134.222204163191691, 35.106888054240358 ], [ 134.23077250254903, 35.110006946263638 ], [ 134.225711114476439, 35.116567774882981 ], [ 134.231317497104897, 35.13050055945331 ], [ 134.223596667152492, 35.136871108614798 ], [ 134.228626667087042, 35.148881387266272 ], [ 134.228596394108422, 35.155758892359074 ], [ 134.221668884911196, 35.165164171389449 ], [ 134.222021387676932, 35.174169171170377 ], [ 134.216520271593367, 35.189488613208994 ], [ 134.221617781835221, 35.190421946715503 ], [ 134.227628884565434, 35.197114999957307 ], [ 134.249758885264441, 35.200680559160503 ], [ 134.254099169940787, 35.208292505494796 ], [ 134.260901945868227, 35.210456667341361 ], [ 134.268539727926168, 35.203926946271622 ], [ 134.281334994214717, 35.19670333349211 ], [ 134.29899610898326, 35.201860279028722 ], [ 134.313794448754834, 35.200594440980694 ], [ 134.322697496892033, 35.202754170968262 ], [ 134.334682217710224, 35.212892505384843 ], [ 134.336553606164102, 35.219483333589039 ], [ 134.350398611506762, 35.222818333599264 ], [ 134.354660272053934, 35.226547224974524 ], [ 134.368899999735277, 35.231719440999427 ], [ 134.374671945753789, 35.237244171481393 ], [ 134.373163333021466, 35.245880558940712 ], [ 134.389726938547483, 35.252121946570639 ], [ 134.40169333298104, 35.24582444124502 ], [ 134.402814448528034, 35.241024441125091 ], [ 134.396997781922209, 35.227618333719192 ], [ 134.382516938805793, 35.221724441429899 ], [ 134.381316394236251, 35.206346946354529 ], [ 134.382992503001674, 35.194438891841457 ], [ 134.394750000212412, 35.191353892568145 ] ] ] ] } },
{ "type": "Feature", "properties": { "name": "浅口市・浅口郡", "id": "33445" }, "geometry": { "type": "MultiPolygon", "coordinates": [ [ [ [ 133.545856108672524, 34.492312775414291 ], [ 133.529794993943824, 34.496773613311632 ], [ 133.538038053913169, 34.508701108469438 ], [ 133.544030271779661, 34.511481386856588 ], [ 133.549528326571021, 34.527891387277748 ], [ 133.543386108981849, 34.536180279396433 ], [ 133.544059169694947, 34.54512638707314 ], [ 133.559285836772005, 34.55582305389089 ], [ 133.561333605661389, 34.568385559446085 ], [ 133.570143332948533, 34.585036108729469 ], [ 133.578029442105162, 34.59011305417414 ], [ 133.584811945514957, 34.589773891951609 ], [ 133.583293890800519, 34.582540559299446 ], [ 133.594518326559637, 34.576610829026606 ], [ 133.60099805341747, 34.576983053924835 ], [ 133.610120830212168, 34.573576386940772 ], [ 133.62327527853131, 34.580483613727836 ], [ 133.636713060959096, 34.569437495544037 ], [ 133.639679999932127, 34.560616946714788 ], [ 133.647861945572345, 34.557307224848614 ], [ 133.642730557868958, 34.548118613183476 ], [ 133.648957223597108, 34.54518472159765 ], [ 133.640793606140051, 34.539426108028522 ], [ 133.629343332628764, 34.520554162244821 ], [ 133.623208054208362, 34.518765559083363 ], [ 133.62300082972456, 34.512833054401995 ], [ 133.607598327201117, 34.506069441251782 ], [ 133.603221659551991, 34.501046107991556 ], [ 133.603739402851261, 34.495143396050935 ], [ 133.594155187512001, 34.491065413937747 ], [ 133.588727108069634, 34.482480802247267 ], [ 133.596182165874325, 34.475627532085014 ], [ 133.592108612022912, 34.470731108453947 ], [ 133.578737885744886, 34.470518225435796 ], [ 133.573241244687779, 34.465904613407247 ], [ 133.567649727852768, 34.486295828889467 ], [ 133.560387223891325, 34.493532225531851 ], [ 133.545856108672524, 34.492312775414291 ] ] ] ] } }
]
}
