{
  "type": "FeatureCollection",
  "features": [
    {
      "type": "Feature",
      "id": "OK-1",
      "properties": {
        "id": "OK-1",
        "name": "岡山1区"
      },
      "geometry": {
        "type": "Polygon",
        "coordinates": [
          [
            [
              118,
              52
            ],
            [
              185,
              45
            ],
            [
              250,
              55
            ],
            [
              270,
              130
            ],
            [
              235,
              205
            ],
            [
              160,
              220
            ],
            [
              110,
              165
            ],
            [
              118,
              52
            ]
          ]
        ]
      }
    },
    {
      "type": "Feature",
      "id": "OK-2",
      "properties": {
        "id": "OK-2",
        "name": "岡山2区"
      },
      "geometry": {
        "type": "Polygon",
        "coordinates": [
          [
            [
              250,
              55
            ],
            [
              330,
              80
            ],
            [
              380,
              145
            ],
            [
              355,
              225
            ],
            [
              300,
              285
            ],
            [
              235,
              205
            ],
            [
              270,
              130
            ],
            [
              250,
              55
            ]
          ]
        ]
      }
    },
    {
      "type": "Feature",
      "id": "OK-3",
      "properties": {
        "id": "OK-3",
        "name": "岡山3区"
      },
      "geometry": {
        "type": "Polygon",
        "coordinates": [
          [
            [
              380,
              145
            ],
            [
              445,
              175
            ],
            [
              500,
              245
            ],
            [
              480,
              335
            ],
            [
              400,
              390
            ],
            [
              300,
              285
            ],
            [
              355,
              225
            ],
            [
              380,
              145
            ]
          ]
        ]
      }
    },
    {
      "type": "Feature",
      "id": "OK-4",
      "properties": {
        "id": "OK-4",
        "name": "岡山4区"
      },
      "geometry": {
        "type": "Polygon",
        "coordinates": [
          [
            [
              110,
              165
            ],
            [
              160,
              220
            ],
            [
              235,
              205
            ],
            [
              300,
              285
            ],
            [
              245,
              350
            ],
            [
              170,
              360
            ],
            [
              95,
              300
            ],
            [
              65,
              225
            ],
            [
              110,
              165
            ]
          ]
        ]
      }
    },
    {
      "type": "Feature",
      "id": "OK-5",
      "properties": {
        "id": "OK-5",
        "name": "岡山5区"
      },
      "geometry": {
        "type": "Polygon",
        "coordinates": [
          [
            [
              245,
              350
            ],
            [
              300,
              285
            ],
            [
              400,
              390
            ],
            [
              470,
              430
            ],
            [
              430,
              520
            ],
            [
              330,
              555
            ],
            [
              230,
              500
            ],
            [
              170,
              360
            ],
            [
              245,
              350
            ]
          ]
        ]
      }
    }
  ]
}